{
  "type": "FeatureCollection",
  "features": [
    {
      "type": "Feature",
      "properties": {
        "method": "lee",
        "unit": "h"
      },
      "geometry": {
        "type": "Polygon",
        "coordinates": [
          [
            [
              -1.0801752019163704,
              0.47021658715521436
            ],
            [
              0.3288111686701191,
              0.48237993490133696
            ],
            [
              0.8266188805910999,
              0.4676217903250975
            ],
            [
              0.8266243834918784,
              0.4611331626292414
            ],
            [
              0.8352750657537523,
              0.46123746932348236
            ],
            [
              0.8268741894048044,
              0.1665798660227775
            ],
            [
              0.8271001867357699,
              -0.09990005064705844
            ],
            [
              0.8124627117173442,
              -0.35314339165520414
            ],
            [
              0.6255018215917156,
              -0.3551844691530828
            ],
            [
              -1.0443558367642287,
              -0.3659214853661365
            ],
            [
              -1.0743216559343503,
              -0.18138289562876994
            ],
            [
              -1.0801752019163704,
              0.47021658715521436
            ]
          ]
        ]
      }
    },
    {
      "type": "Feature",
      "properties": {
        "method": "exact",
        "unit": "h"
      },
      "geometry": {
        "type": "Polygon",
        "coordinates": [
          [
            [
              -0.11683751016153378,
              0.4785327863650646
            ],
            [
              -0.5586166972488918,
              0.47471904196574405
            ],
            [
              -1.0399395034079941,
              0.47056392961571036
            ],
            [
              -1.0612262621415576,
              0.4703801675479791
            ],
            [
              -1.0801752019163704,
              0.47021658715521436
            ],
            [
              -1.0743216559343505,
              -0.18138289562876944
            ],
            [
              -1.044355836764229,
              -0.3659214853661365
            ],
            [
              -1.0379026260268676,
              -0.36587999187238474
            ],
            [
              0.07996421452020856,
              -0.3586922209082379
            ],
            [
              0.625501821591698,
              -0.3551844691530833
            ],
            [
              0.8124627117173442,
              -0.35314339165520414
            ],
            [
              0.8125008505326052,
              -0.3524835510073691
            ],
            [
              0.8129526194300538,
              -0.3446674854079807
            ],
            [
              0.8132103294515933,
              -0.3402088375343686
            ],
            [
              0.8138117732574489,
              -0.32980324240052517
            ],
            [
              0.8265541842788121,
              -0.10934645354266995
            ],
            [
              0.8271001867357699,
              -0.09990005064705683
            ],
            [
              0.8268741894048044,
              0.166579866022778
            ],
            [
              0.8350452680990675,
              0.453177402330356
            ],
            [
              0.8352750657537523,
              0.46123746932348236
            ],
            [
              0.8266243834918781,
              0.4611331626292411
            ],
            [
              0.8266225079850976,
              0.46334462631549944
            ],
            [
              0.8266188805911003,
              0.46762179032509826
            ],
            [
              0.8091457869028733,
              0.46813980247450787
            ],
            [
              0.3288111686701193,
              0.4823799349013371
            ],
            [
              -0.11683751016153378,
              0.4785327863650646
            ]
          ]
        ]
      }
    },
    {
      "type": "Feature",
      "properties": {
        "method": "point",
        "unit": "h"
      },
      "geometry": {
        "type": "Polygon",
        "coordinates": [
          [
            [
              -1.0801752019163704,
              0.47021658715521436
            ],
            [
              -1.0485676611249775,
              -0.35787992394125356
            ],
            [
              0.8145050208508036,
              -0.34840706653234393
            ],
            [
              0.8397140056134748,
              0.4636886443570983
            ],
            [
              -1.0801752019163704,
              0.47021658715521436
            ]
          ]
        ]
      }
    }
  ]
}