{"type": "FeatureCollection", "features": [{"type": "Feature", "geometry": {"type": "Polygon", "coordinates": [[[-0.7809151052399587, -0.745559783150341], [-0.7806403233073985, -0.7307892906693336], [-0.7938422250685238, -0.7300757036151401], [-0.793421159858393, -0.5385756825070167], [-0.771871001435539, 0.26705458241388713], [-0.7719799258409864, 0.27022950672005663], [-0.7804777823974378, 0.5179246969815061], [-0.7756879173143927, 0.7863536020886256], [-0.7748188656829037, 0.8350561383558576], [-0.7735906293698493, 0.8350266170380646], [0.1203598511771632, 0.8135400383179111], [0.3194704318845007, 0.8144768761924102], [0.42009438692162104, 0.8109380904645112], [0.6433955847262861, 0.8030849396762879], [0.7870813811056898, 0.7980317369340416], [0.7934914492536085, 0.797806304951485], [0.7961034016153143, 0.7977144467082252], [0.7961297519606254, 0.7907988992469146], [0.7961388899342767, 0.7884006729716828], [0.7963547770763065, 0.7317419172942818], [0.7994234320967478, 0.6609400994760087], [0.7971972196990276, 0.5106460693238613], [0.797299668436379, 0.48375878958834984], [0.8010835758047352, -0.5093132436690039], [0.8019946042547145, -0.7484091799866148], [0.802025325536806, -0.7564718631077973], [0.8020601350945546, -0.7656074985568199], [0.6856999679169068, -0.7616888294589526], [0.5928632114952362, -0.7585623598314174], [0.4920262497477674, -0.7643069979612135], [0.3958243492150996, -0.7656074985568199], [0.21264347163844383, -0.7656074985568199], [-0.19707235474382903, -0.7623322119199087], [-0.30012580833904917, -0.7567619833493532], [-0.4923630373605878, -0.7599716449988821], [-0.555258361404786, -0.7594688569660519], [-0.7209026923546183, -0.7631611269515741], [-0.7210681143794133, -0.7581433663864406], [-0.7586284228710503, -0.7578431076008156], [-0.7586588076635581, -0.7509753910548647], [-0.7719638164767032, -0.7509666392559574], [-0.7719438965678652, -0.7455986041684892], [-0.7809151052399587, -0.745559783150341]]]}, "properties": {"image": "7y3sRwLe3Va-04", "condition": "manual", "method": "mv50", "n": 24, "workers": ["P001", "P002", "P003", "P004", "P005", "P006", "P007", "P008", "P009", "P010", "P011", "P012", "P014", "P017", "P018", "P019", "P020", "P021", "P022", "P023", "P024", "P025", "P026", "P027"], "records": ["R01553", "R02398", "R00862", "R00194", "R01300", "R01787", "R02226", "R01649", "R01550", "R01041", "R02003", "R01837", "R01441", "R00332", "R00478", "R01896", "R00992", "R01556", "R01020", "R00917", "R00441", "R02365", "R00755", "R01449"], "output_type": "BEV_region_only"}}, {"type": "Feature", "geometry": {"type": "Polygon", "coordinates": [[[-0.7697083309954008, -0.14315636756416203], [-0.7685457725330176, 0.17013094052825997], [-0.771871001435539, 0.26705458241388713], [-0.7719799258409864, 0.27022950672005663], [-0.7804777823974378, 0.5179246969815061], [-0.7756879173143927, 0.7863536020886256], [-0.7719860114170201, 0.7863536020886256], [-0.7735906293698493, 0.8350266170380646], [0.1203598511771632, 0.8135400383179111], [0.20816412539951062, 0.811429615547189], [0.42009438692162104, 0.8109380904645112], [0.6433955847262861, 0.8030849396762879], [0.7870813811056898, 0.7980317369340416], [0.7934914492536085, 0.797806304951485], [0.7961034016153143, 0.7977144467082252], [0.7961297519606254, 0.7907988992469146], [0.7961388899342767, 0.7884006729716828], [0.7963547770763065, 0.7317419172942818], [0.7971972196990276, 0.5106460693238613], [0.797299668436379, 0.48375878958834984], [0.8010835758047352, -0.5093132436690039], [0.8019946042547145, -0.7484091799866148], [0.802025325536806, -0.7564718631077973], [0.8000481220624086, -0.7564508426345458], [0.800076445373593, -0.7601426367514055], [0.6856999679169068, -0.7616888294589526], [0.5928632114952362, -0.7585623598314174], [0.4056614541163081, -0.752257953783364], [0.3538555124354243, -0.7517071832503995], [0.015935791061894904, -0.7514849056487984], [-0.30012580833904917, -0.7567619833493532], [-0.3391621551260857, -0.7546519970599336], [-0.555258361404786, -0.7594688569660519], [-0.7210681143794133, -0.7581433663864406], [-0.7213036131236041, -0.7509999626395474], [-0.7586588076635581, -0.7509753910548647], [-0.7586823422508262, -0.7456559907548049], [-0.7719438965678652, -0.7455986041684892], [-0.7718906965831634, -0.7312622240748695], [-0.7806403233073985, -0.7307892906693336], [-0.7697083309954008, -0.14315636756416203]]]}, "properties": {"image": "7y3sRwLe3Va-04", "condition": "manual", "method": "mv_strict", "n": 24, "workers": ["P001", "P002", "P003", "P004", "P005", "P006", "P007", "P008", "P009", "P010", "P011", "P012", "P014", "P017", "P018", "P019", "P020", "P021", "P022", "P023", "P024", "P025", "P026", "P027"], "records": ["R01553", "R02398", "R00862", "R00194", "R01300", "R01787", "R02226", "R01649", "R01550", "R01041", "R02003", "R01837", "R01441", "R00332", "R00478", "R01896", "R00992", "R01556", "R01020", "R00917", "R00441", "R02365", "R00755", "R01449"], "output_type": "BEV_region_only"}}, {"type": "Feature", "geometry": {"type": "Polygon", "coordinates": [[[-0.499208308324595, -0.2929685317494202], [-0.500531473251526, -0.2929412964838079], [-0.5011573520115423, -0.24156231241444498], [-0.5030882284043131, -0.24158590173129119], [-0.5030169726359804, -0.23716949241098895], [-0.502909482020611, -0.23050725906944705], [-0.5052576087924467, -0.23054154704121071], [-0.5053004672079859, -0.22622823932560748], [-0.5064127580164003, -0.22624152078679435], [-0.5095221848471518, -0.15728981872916512], [-0.5097825284512423, -0.1436423231025236], [-0.5073527405458418, -0.01968568959880375], [-0.5118265115530679, 0.430558463400657], [-0.5093439709640254, 0.43048504182177666], [-0.5094524309043146, 0.43938862171660026], [-0.5045646624915818, 0.4393450602844495], [-0.50471890113419, 0.45392107050352215], [-0.5012340490771281, 0.4538853732017337], [-0.5012366304400209, 0.45468959585305513], [-0.5012960338300159, 0.47319669996203495], [-0.4872986010617648, 0.47280931603492415], [-0.48736435067699135, 0.4766628794859832], [-0.4873859976030472, 0.4779315987444779], [-0.47343061658554475, 0.47811104004222166], [-0.4153278577136784, 0.4788581378420873], [-0.37165422334890286, 0.47466186450806985], [-0.26580447513641337, 0.4728313684532087], [-0.1524018782274233, 0.4779096511404132], [-0.019133237715755067, 0.4717874843255118], [0.00045502034234690125, 0.4701204936480002], [0.014125792271381261, 0.47025961303560226], [0.11620221444900419, 0.4712983846145357], [0.31364002786189094, 0.46395453690911614], [0.3239577527096494, 0.46357076138689685], [0.3391556926203552, 0.46375314655769945], [0.5096494645751581, 0.4624074712255706], [0.5102897603784974, 0.45941010425276285], [0.5713894041181494, 0.45835348712605667], [0.5714202136801746, 0.45810252470258167], [0.5725910618656783, 0.4581062500520004], [0.5726553837227669, 0.4543202662801689], [0.5743010333470501, 0.4542590551068465], [0.5768677518187365, 0.43656635621735046], [0.5787011513319553, 0.42392851303768275], [0.5778560566703776, 0.4209827836030643], [0.5791444004526832, 0.4208731435795276], [0.5938849027805585, 0.3192650895432536], [0.5929435487513546, 0.28278200809423226], [0.5973065287665318, 0.2472429102879172], [0.5976633318553981, 0.22468955427115267], [0.603460931897755, 0.16733304285784512], [0.6025404237619827, 0.027564244568493004], [0.6053909010650802, 0.014220526742318843], [0.6042160378430402, -0.11900147449422215], [0.6214142115724828, -0.21277454793328673], [0.6045873671454829, -0.21297547118057458], [0.6048258621726892, -0.22805063006976134], [0.6032541816953529, -0.22806983112732238], [0.6031983439188603, -0.23440147909229805], [0.6008131966592432, -0.23469574764787082], [0.6008088404212816, -0.23535719334431868], [0.5794195530189403, -0.24135346327474638], [0.579417989856742, -0.24141404513027898], [0.579047940882741, -0.24145764097062558], [0.5788868742163754, -0.2415027943780372], [0.5788913332799073, -0.2430002535835856], [0.5651347317058819, -0.2476761041371131], [0.5644908459209645, -0.24774292346205115], [0.5644672417214824, -0.2479029830938259], [0.561625932162794, -0.24886874042867682], [0.5564584173689904, -0.2494738014287193], [0.5224496199048702, -0.26217964497679475], [0.5017599440411757, -0.26635641144520517], [0.4993736619991733, -0.26661085485783487], [0.49934885000609897, -0.26684315549978777], [0.4605702994843675, -0.27467164689712986], [0.43949205298646055, -0.2789268567788775], [0.4391174477166392, -0.2790024809085249], [0.37322223715380454, -0.2923051980569679], [0.3720581830757663, -0.2963627179030448], [0.37103349195643376, -0.29643423199246877], [0.3710154133303226, -0.29832854730312297], [0.37101166326059576, -0.298721487256411], [0.3707174576590352, -0.2987466331036129], [0.36018041202345796, -0.2996472377763513], [0.3595466107525456, -0.3106446489445886], [0.2563608165944465, -0.3085207319225177], [-0.47290403945610193, -0.3708512332544571], [-0.4729137264965989, -0.37028347897818636], [-0.49048782557557047, -0.37215736214238826], [-0.49048844543053927, -0.3720601395571343], [-0.4985799199702293, -0.3730075651325141], [-0.49858849859278126, -0.37033489845988454], [-0.4985946584565319, -0.3684157951942416], [-0.49961061429651255, -0.3685354859695466], [-0.4997009252524469, -0.36112177350210506], [-0.4996796426885055, -0.35817734418308256], [-0.4997367209874579, -0.35818326749043605], [-0.49981989767962, -0.3513552135372616], [-0.49957460259680625, -0.34364511364338235], [-0.499208308324595, -0.2929685317494202]]]}, "properties": {"image": "UwV83HsGsw3-09", "condition": "manual", "method": "mv50", "n": 24, "workers": ["P001", "P002", "P003", "P004", "P005", "P006", "P007", "P008", "P009", "P010", "P011", "P012", "P014", "P017", "P018", "P019", "P020", "P021", "P022", "P023", "P024", "P025", "P026", "P027"], "records": ["R01572", "R00408", "R00480", "R01271", "R00741", "R00257", "R02381", "R00400", "R01359", "R01297", "R00402", "R00224", "R00307", "R01411", "R01228", "R00164", "R02140", "R00704", "R00886", "R01780", "R00130", "R00686", "R00064", "R00593"], "output_type": "BEV_region_only"}}, {"type": "Feature", "geometry": {"type": "Polygon", "coordinates": [[[-0.5011573520115423, -0.24156231241444498], [-0.501211177880429, -0.2371436955245265], [-0.5030169726359804, -0.23716949241098895], [-0.502909482020611, -0.23050725906944705], [-0.5028399689148474, -0.2261988594077537], [-0.5053004672079859, -0.22622823932560748], [-0.5073527405458418, -0.01968568959880375], [-0.5051987584632948, 0.09020059594341912], [-0.5093439709640254, 0.43048504182177666], [-0.5044693831049658, 0.43034087501999985], [-0.5045646624915818, 0.4393450602844495], [-0.501187281525773, 0.43931495993202563], [-0.5012340490771281, 0.4538853732017337], [-0.5012366304400209, 0.45468959585305513], [-0.4980538760602925, 0.4546997225905137], [-0.49774693079953575, 0.4703586618373345], [-0.48725537505578637, 0.4702758539576205], [-0.4872986010617648, 0.47280931603492415], [-0.48736435067699135, 0.4766628794859832], [-0.47348432605063995, 0.4764228474523792], [-0.47343061658554475, 0.47811104004222166], [-0.4153278577136784, 0.4788581378420873], [-0.37165422334890286, 0.47466186450806985], [-0.32500940267963363, 0.4701801120734168], [-0.26580447513641337, 0.4728313684532087], [-0.06848051168072113, 0.46941897737307026], [0.00045502034234690125, 0.4701204936480002], [0.014125792271381261, 0.47025961303560226], [0.09334238366428822, 0.46662051845826397], [0.19197655442024292, 0.46491480386288464], [0.31364002786189094, 0.46395453690911614], [0.3239577527096494, 0.46357076138689685], [0.37110550257708386, 0.46181706543223405], [0.5102897603784974, 0.45941010425276285], [0.5106104162251275, 0.45790904296309914], [0.5714202136801746, 0.45810252470258167], [0.5718810089744459, 0.45434906973033024], [0.5726553837227669, 0.4543202662801689], [0.5743010333470501, 0.4542590551068465], [0.5768677518187365, 0.43656635621735046], [0.5768865995907354, 0.43023682772275795], [0.5778217034861086, 0.42098570711151256], [0.5778560566703776, 0.4209827836030643], [0.5778308722801274, 0.4208949988813925], [0.5864207178092874, 0.3359143914693079], [0.5929435487513546, 0.28278200809423226], [0.5927092393421685, 0.27370112141991476], [0.5976633318553981, 0.22468955427115267], [0.6006412849403694, 0.036454535510576605], [0.6025404237619827, 0.027564244568493004], [0.6020235473341133, -0.05091762254373591], [0.6029953648594545, -0.11234575283821269], [0.6042160378430402, -0.11900147449422215], [0.6038168238853502, -0.1642697928544477], [0.6045873671454829, -0.21297547118057458], [0.6033871700238052, -0.21298980229917017], [0.6032541816953529, -0.22806983112732238], [0.6008566416054393, -0.22809912162620888], [0.6008131966592432, -0.23469574764787082], [0.5843958127077324, -0.23672124936153446], [0.5844348954684593, -0.23902166021046445], [0.5794314868350093, -0.2408909567467732], [0.5794195530189403, -0.24135346327474638], [0.579047940882741, -0.24145764097062558], [0.5788867962921495, -0.2414766255762798], [0.5788868742163754, -0.2415027943780372], [0.5745082868017415, -0.24273028698020988], [0.564689066576509, -0.24639879293304537], [0.5644908459209645, -0.24774292346205115], [0.5597838942243223, -0.24823138794170402], [0.5564584173689904, -0.2494738014287193], [0.5461465564348693, -0.25068121062599524], [0.4996838699066565, -0.2637065538679359], [0.4993736619991733, -0.26661085485783487], [0.48315525290279693, -0.26834018411785954], [0.4605702994843675, -0.27467164689712986], [0.43949205298646055, -0.2789268567788775], [0.4393428898958007, -0.2789306528964299], [0.4391174477166392, -0.2790024809085249], [0.37322223715380454, -0.2923051980569679], [0.37106874890075225, -0.29273993746925847], [0.37103349195643376, -0.29643423199246877], [0.3710154133303226, -0.29832854730312297], [0.3707174576590352, -0.2987466331036129], [0.36018041202345796, -0.2996472377763513], [0.2563608165944465, -0.3085207319225177], [-0.47290403945610193, -0.3708512332544571], [-0.4729137264965989, -0.37028347897818636], [-0.4729185139563849, -0.37000288752542715], [-0.49048844543053927, -0.3720601395571343], [-0.49050580273877936, -0.36933769242805525], [-0.49858849859278126, -0.37033489845988454], [-0.4985946584565319, -0.3684157951942416], [-0.49862787178020085, -0.3580681965303022], [-0.4996796426885055, -0.35817734418308256], [-0.49957460259680625, -0.34364511364338235], [-0.4987566853132792, -0.31793638810112357], [-0.4988368016323356, -0.29297617862943837], [-0.499208308324595, -0.2929685317494202], [-0.4989510614193075, -0.2573785843989771], [-0.49900191240193376, -0.24153597963204407], [-0.5011573520115423, -0.24156231241444498]]]}, "properties": {"image": "UwV83HsGsw3-09", "condition": "manual", "method": "mv_strict", "n": 24, "workers": ["P001", "P002", "P003", "P004", "P005", "P006", "P007", "P008", "P009", "P010", "P011", "P012", "P014", "P017", "P018", "P019", "P020", "P021", "P022", "P023", "P024", "P025", "P026", "P027"], "records": ["R01572", "R00408", "R00480", "R01271", "R00741", "R00257", "R02381", "R00400", "R01359", "R01297", "R00402", "R00224", "R00307", "R01411", "R01228", "R00164", "R02140", "R00704", "R00886", "R01780", "R00130", "R00686", "R00064", "R00593"], "output_type": "BEV_region_only"}}, {"type": "Feature", "geometry": {"type": "Polygon", "coordinates": [[[-0.541946028924101, -1.1075091071519958], [-0.5422828306961534, -1.107507733488736], [-0.5421619338134429, -1.094561466460933], [-0.5431162693301974, -1.0945404675459334], [-0.5498982752783389, -1.0943912383032492], [-0.5467290075670018, -0.9621792883712443], [-0.544605830603069, -0.873606977030009], [-0.5460468226237127, -0.7781209339981515], [-0.5445741265427144, -0.6994962462984962], [-0.5387974059282523, -0.591565812689659], [-0.538246550109308, -0.5013008408671702], [-0.5386862698976842, -0.3851537991983204], [-0.5369827070894642, -0.2942035376329821], [-0.536513411775201, -0.21730332733915986], [-0.5366251591514933, -0.2081097003883919], [-0.5363718302193363, -0.19410332706469402], [-0.5355942329638635, -0.06668378833856321], [-0.5360920908541797, -0.03138250031024989], [-0.5349334794810616, 0.04158936128707963], [-0.534704231662218, 0.0791546319016988], [-0.5334661577004975, 0.13400447508136804], [-0.5287295459796371, 0.34384848935264556], [-0.5272518006385432, 0.5020931467498205], [-0.5271355087056109, 0.5327225033990713], [-0.5267233780163442, 0.5586793896466561], [-0.526033152234393, 0.6325923564848446], [-0.5264251423898929, 0.6861319115515261], [-0.5255332943844665, 0.6861197349913108], [-0.5255235006827887, 0.6871684955074493], [-0.5246836258961902, 0.6871474099493945], [-0.5246687148478553, 0.6880865401708113], [-0.5204142319426495, 0.6881807330692924], [-0.5203853726044586, 0.6897763449922357], [-0.5185523003711161, 0.6897638885758656], [-0.5185165109093263, 0.6916746258233339], [-0.4581424439385868, 0.6895594106515961], [-0.40822472546666, 0.6906645730633852], [-0.3563683973746665, 0.6886617878580008], [-0.30972999501832393, 0.6883448623446339], [-0.2784940578255709, 0.6882758047935688], [-0.2768238469199858, 0.6881212526720875], [-0.030267135250011235, 0.6864458069348381], [0.018456311969547695, 0.6845493929980062], [0.13353287654082965, 0.6838672979403175], [0.14994367892385493, 0.6852212065645267], [0.18612132999368558, 0.6849753657968668], [0.2272338004738745, 0.6833119030399423], [0.28389989561632867, 0.682976025239113], [0.2893394363035694, 0.6829437833675148], [0.8630670199531041, 0.6795431192033998], [0.9130159858459579, 0.6792470559441331], [0.9128712181197074, 0.6664809411006939], [0.9322589906146734, 0.6662162363777061], [0.9311622808625017, 0.5763408672462261], [0.9395578631643219, 0.575563986283781], [0.9415204180743331, 0.5407867686673611], [0.941187642229667, 0.46039065447653216], [0.9264137368349658, 0.1871976627960365], [0.9248357469041757, 0.05788138085847094], [0.9216030557044861, 0.006794325041103222], [0.9225854084678576, -0.12653386413624446], [0.9218682490174331, -0.18530508432955514], [0.9232067699711461, -0.2108671170642763], [0.9250556212260139, -0.4617993677394398], [0.9151537056188175, -0.7355619460971423], [0.9101312857445614, -0.8744189783033192], [0.910781055576892, -1.0222170455568804], [0.9109679385882918, -1.0647258640847155], [0.9078226815806509, -1.0648822515957492], [0.9079679066699626, -1.1140327496729974], [0.904276275518443, -1.1140454423349777], [0.904329441863372, -1.1198536182510452], [0.9012558426159699, -1.1198022244687857], [0.9011259812203539, -1.1233925590972826], [0.9010957883154466, -1.1242273155043696], [0.8955379427862132, -1.124235887689583], [0.8955732453120812, -1.1261969639231768], [0.8122841235748679, -1.1243642948492012], [0.5157796976240914, -1.117840099607338], [0.4544392038054138, -1.1169562436535638], [0.16720763910548492, -1.1236313351697413], [0.11084782925864908, -1.1226569241639204], [-0.008290597546016243, -1.1256299144951432], [-0.019992962205299447, -1.1256479637260486], [-0.2715604729448583, -1.1235231816193851], [-0.46984504526773135, -1.12184843629929], [-0.47835664740497136, -1.121776545855778], [-0.4809873197431728, -1.1212328062674275], [-0.5132055444839689, -1.119452693349958], [-0.5132094513479053, -1.1189190785284486], [-0.5222978699327276, -1.1189503265649663], [-0.525556194413869, -1.1187702984738828], [-0.5256384407685105, -1.1120037655339456], [-0.5274922807455928, -1.1116205911752963], [-0.5291531637935483, -1.1115918759839978], [-0.5291488608784247, -1.1112781888979715], [-0.5419528797031885, -1.108631697419763], [-0.541946028924101, -1.1075091071519958]]]}, "properties": {"image": "X7HyMhZNoso-13", "condition": "manual", "method": "mv50", "n": 24, "workers": ["P001", "P002", "P003", "P004", "P005", "P006", "P007", "P008", "P009", "P010", "P011", "P012", "P014", "P017", "P018", "P019", "P020", "P021", "P022", "P023", "P024", "P025", "P026", "P027"], "records": ["R00434", "R01057", "R02088", "R01788", "R01792", "R02090", "R01776", "R00007", "R02127", "R01174", "R00156", "R00945", "R00831", "R00121", "R00179", "R02454", "R01012", "R01079", "R01872", "R00999", "R02479", "R00151", "R01480", "R00904"], "output_type": "BEV_region_only"}}, {"type": "Feature", "geometry": {"type": "Polygon", "coordinates": [[[-0.541946028924101, -1.1075091071519958], [-0.5418670535600388, -1.0945679549183651], [-0.5421619338134429, -1.094561466460933], [-0.5431162693301974, -1.0945404675459334], [-0.5467290075670018, -0.9621792883712443], [-0.544605830603069, -0.873606977030009], [-0.5391226866489595, -0.6448673374793721], [-0.5387974059282523, -0.591565812689659], [-0.5379637827597962, -0.5759906592344957], [-0.538246550109308, -0.5013008408671702], [-0.5369827070894642, -0.2942035376329821], [-0.5361312399568897, -0.24874518526213008], [-0.536513411775201, -0.21730332733915986], [-0.5363718302193363, -0.19410332706469402], [-0.5349252181276622, -0.11412119143556354], [-0.5355942329638635, -0.06668378833856321], [-0.5349334794810616, 0.04158936128707963], [-0.5334661577004975, 0.13400447508136804], [-0.5287295459796371, 0.34384848935264556], [-0.5276752826163017, 0.3905550528835152], [-0.5272518006385432, 0.5020931467498205], [-0.5267233780163442, 0.5586793896466561], [-0.5258806160703329, 0.6117583680778123], [-0.526033152234393, 0.6325923564848446], [-0.5255332943844665, 0.6861197349913108], [-0.5247001234278801, 0.6861083595593306], [-0.5246836258961902, 0.6871474099493945], [-0.520434850609361, 0.6870407419086322], [-0.5204142319426495, 0.6881807330692924], [-0.5185811938488217, 0.6882213159497342], [-0.5185523003711161, 0.6897638885758656], [-0.4652628652128345, 0.6894017667890701], [-0.4581424439385868, 0.6895594106515961], [-0.45084671520604924, 0.6893038036190033], [-0.3563683973746665, 0.6886617878580008], [-0.3504961117855128, 0.6884349895648613], [-0.30972999501832393, 0.6883448623446339], [-0.2768238469199858, 0.6881212526720875], [-0.25579047359395435, 0.6861749401084608], [0.018456311969547695, 0.6845493929980062], [0.13353287654082965, 0.6838672979403175], [0.2272338004738745, 0.6833119030399423], [0.28389989561632867, 0.682976025239113], [0.2860879580857224, 0.6827907118217723], [0.2893394363035694, 0.6829437833675148], [0.8630670199531041, 0.6795431192033998], [0.8632899741274658, 0.6671578826864157], [0.9128712181197074, 0.6664809411006939], [0.9127475464223141, 0.6555751464688538], [0.916824099319069, 0.6554102039625733], [0.917397291856388, 0.5776146035426111], [0.9311622808625017, 0.5763408672462261], [0.9264137368349658, 0.1871976627960365], [0.9210100767785152, 0.08727540003567058], [0.9216030557044861, 0.006794325041103222], [0.9162439619233544, -0.07789682119441341], [0.9218682490174331, -0.18530508432955514], [0.9151537056188175, -0.7355619460971423], [0.9101312857445614, -0.8744189783033192], [0.910781055576892, -1.0222170455568804], [0.9076971567111309, -1.0223991662884249], [0.9078226815806509, -1.0648822515957492], [0.9038280681379322, -1.0650808705487733], [0.904276275518443, -1.1140454423349777], [0.9014637140404683, -1.1140551125568046], [0.9012558426159699, -1.1198022244687857], [0.9011259812203539, -1.1233925590972826], [0.8955213077448998, -1.123311801286058], [0.8955379427862132, -1.124235887689583], [0.8122841235748679, -1.1243642948492012], [0.5157796976240914, -1.117840099607338], [0.4647360651262478, -1.1167169506924377], [0.4544392038054138, -1.1169562436535638], [0.3814437384734998, -1.1159044510673668], [0.11084782925864908, -1.1226569241639204], [-0.15997015753368304, -1.117974721941771], [-0.2715604729448583, -1.1235231816193851], [-0.46984504526773135, -1.12184843629929], [-0.4809873197431728, -1.1212328062674275], [-0.4925254589890733, -1.11884796228941], [-0.5132094513479053, -1.1189190785284486], [-0.5132413213089966, -1.1145661540662464], [-0.5256384407685105, -1.1120037655339456], [-0.5256427095227462, -1.1116525686173866], [-0.5274922807455928, -1.1116205911752963], [-0.5291488608784247, -1.1112781888979715], [-0.5290978783582915, -1.1075615089914521], [-0.5340382803181007, -1.1075413593092842], [-0.5410692310186689, -1.1079565745743687], [-0.5410759302519389, -1.1075126558939485], [-0.541946028924101, -1.1075091071519958]]]}, "properties": {"image": "X7HyMhZNoso-13", "condition": "manual", "method": "mv_strict", "n": 24, "workers": ["P001", "P002", "P003", "P004", "P005", "P006", "P007", "P008", "P009", "P010", "P011", "P012", "P014", "P017", "P018", "P019", "P020", "P021", "P022", "P023", "P024", "P025", "P026", "P027"], "records": ["R00434", "R01057", "R02088", "R01788", "R01792", "R02090", "R01776", "R00007", "R02127", "R01174", "R00156", "R00945", "R00831", "R00121", "R00179", "R02454", "R01012", "R01079", "R01872", "R00999", "R02479", "R00151", "R01480", "R00904"], "output_type": "BEV_region_only"}}, {"type": "Feature", "geometry": {"type": "Polygon", "coordinates": [[[-0.15457791425518977, -0.8752223324458364], [-0.15223167582888494, -0.4567406410993518], [-0.15219241608562148, -0.4497381627584763], [-0.15009403075291075, -0.07546424699431986], [-0.15091758045208106, 0.08556937708052781], [-0.1509169995899225, 0.08580909131537684], [-0.150921222168574, 0.08628146380134127], [-0.15342249306801348, 0.5753700010632457], [-0.1532451502694845, 0.656982427316291], [-0.15458983456769418, 0.8036273028580607], [-0.15511231772899556, 0.9057915766926667], [-0.1526488258181545, 1.0169377847494994], [-0.15927901539705627, 1.8713864816596], [-0.15723151598805596, 1.8719290173123206], [-0.15789250278333133, 1.9503550567390637], [-0.1504349636365028, 1.9502187540453642], [-0.15040221926478292, 1.965287579192805], [-0.1473893639175416, 1.965654043050403], [-0.14736675174891212, 2.0057289177296758], [-0.14735906759890036, 2.019347308507884], [-0.13974824500880936, 2.019892747759705], [-0.1399029807764139, 2.046133118950733], [-0.13819874554220152, 2.04621231333139], [-0.13816626265343668, 2.052006052824242], [-0.13799796715561152, 2.082023711637715], [-0.12904946616628593, 2.0816781747348228], [-0.12845898196952474, 2.1083192524256704], [0.19054823770657958, 2.0838276248052447], [0.24793639140369222, 2.0877800811014233], [0.27196854022798533, 2.0775766197899936], [0.37180470635872476, 2.0699117456018556], [0.41682782350231595, 2.0720039320593644], [0.4170207777359698, 2.066440303219597], [0.45106403733491934, 2.063826648149566], [0.45111297584115195, 2.0622375663933683], [0.4519914462674302, 2.062300523090412], [0.4520534121901838, 2.0592395015884954], [0.45226689351620364, 2.0486938516543725], [0.45250126467174195, 2.048692536883331], [0.46083535758432764, 2.048645784440643], [0.4610426709570527, 2.0357560680553983], [0.4621877351183612, 2.0360594811501382], [0.4623257724120595, 2.025913796221389], [0.46697971101870345, 2.026256941995779], [0.46738663018845983, 2.0080461557007743], [0.4684514931925318, 2.0012902915811344], [0.4685855029869215, 1.9940978769048092], [0.46965686289023323, 1.9936430037511856], [0.4781975433871635, 1.9394579332718096], [0.4788787347331562, 1.8604897750065157], [0.4809952784262412, 1.840950769999834], [0.484047359922499, 1.2624312737893582], [0.48406260458637856, 1.2595416604948446], [0.4856064370370005, 1.0805705006100235], [0.492133367611487, 0.7302648272888099], [0.4969676447200831, 0.5732910626797697], [0.49710009630366714, 0.46369645815079324], [0.49741466261065415, 0.2034144057997932], [0.5016148511476599, 0.030037999488871092], [0.501576066557489, 0.016070780774968263], [0.5032882769736025, -0.05484700206051263], [0.5050412729131034, -0.11505679040583194], [0.5051470450473857, -0.1318350342308241], [0.51325321908341, -0.4675834238582324], [0.5136701465737332, -0.46758342382920315], [0.5144517968260011, -0.46758342377477935], [0.5144931523793606, -0.4698030099646227], [0.515369535548103, -0.4697994873029134], [0.5155021779196592, -0.4743553273576806], [0.5155416393771132, -0.47435485712770104], [0.5155644322140157, -0.4764935627079879], [0.51583462455794, -0.48577380316584134], [0.5230975428310506, -0.485175102568332], [0.5295485541939312, -0.48464332949692146], [0.5298672064946228, -0.49499028522934024], [0.5298865519126551, -0.4949948009995729], [0.5432869392875697, -0.49698328102985645], [0.5435290231428694, -0.4981793414100484], [0.7393302823898596, -0.5438849186454293], [0.7410480191174664, -0.559742312296466], [0.8699623050285002, -0.5970892004888779], [0.8702012145600593, -0.5986778963002558], [0.8708118604769923, -0.598825571883751], [0.8771909051882559, -0.6431396227660962], [0.8858416963995361, -0.6467794478619325], [1.0081324540357608, -1.4226348757610086], [1.0073519276147165, -1.5106999572687516], [1.0524050599292212, -1.810293372945605], [1.0465108492415052, -1.8193741462399489], [1.1200768845219284, -2.3304238689159518], [1.1379400358080882, -2.905042546762619], [1.2326033788885458, -3.2675902242338006], [1.2324432800204752, -3.2773504363123793], [1.2500635824098698, -3.345864747801354], [1.2567462597949364, -3.4536217692169133], [1.2335255533233493, -3.457396475041934], [1.233533275435506, -3.4574285391489643], [1.1532292239613646, -3.473641910685727], [1.135716931518012, -3.4732960246494193], [1.13536523997406, -3.473353194835916], [1.0650105469853148, -3.4719983846665134], [0.9616202198566903, -3.501596794586331], [0.8344440949751282, -3.5380045629027568], [0.2034630263960312, -3.718640767837233], [0.06777261881915031, -3.745735059200175], [-0.10971548043672202, -3.765845449874818], [-0.11002860360094353, -3.728693407204387], [-0.11428430810562636, -3.7295526330718056], [-0.11468632307529443, -3.6765587657944194], [-0.11622717435718423, -3.676809243113719], [-0.11729750067518367, -3.5388736808194805], [-0.11850865346622096, -3.539655888253284], [-0.11931731842735492, -3.4491919538826474], [-0.13284162168351435, -3.44893151832665], [-0.13284515513827513, -3.4482406006732154], [-0.14174021436354106, -3.448064913978392], [-0.14726091261317426, -2.853422742402573], [-0.15010867808893336, -2.8537056750663594], [-0.14994536811789516, -2.5642762651554323], [-0.1494789847498477, -1.7377188777031338], [-0.15473880898722236, -1.4914017872212164], [-0.1532438426301409, -0.8744486751426889], [-0.15457791425518977, -0.8752223324458364]]]}, "properties": {"image": "e9zR4mvMWw7-19", "condition": "manual", "method": "mv50", "n": 24, "workers": ["P001", "P002", "P003", "P004", "P005", "P006", "P007", "P008", "P009", "P010", "P011", "P012", "P014", "P017", "P018", "P019", "P020", "P021", "P022", "P023", "P024", "P025", "P026", "P027"], "records": ["R02444", "R01884", "R00377", "R00565", "R00080", "R02122", "R00927", "R00053", "R01075", "R02463", "R00225", "R01783", "R00054", "R00509", "R00496", "R01240", "R00398", "R01301", "R00813", "R01329", "R02038", "R00303", "R01346", "R00540"], "output_type": "BEV_region_only"}}, {"type": "Feature", "geometry": {"type": "Polygon", "coordinates": [[[-0.15219241608562148, -0.4497381627584763], [-0.15009403075291075, -0.07546424699431986], [-0.14985556815355394, -0.03293138640227955], [-0.1509169995899225, 0.08580909131537684], [-0.15030889027076136, 0.3367678738747806], [-0.1532451502694845, 0.656982427316291], [-0.15250363162782465, 0.9982262554259587], [-0.1526488258181545, 1.0169377847494994], [-0.15244277012166324, 1.0262344701628867], [-0.151979463003578, 1.239446499751192], [-0.15268760916160748, 1.332794773678872], [-0.15723151598805596, 1.8719290173123206], [-0.15677842782459647, 1.8720490742370857], [-0.15726481412682697, 1.936164823875022], [-0.15046337289659667, 1.93714492943255], [-0.1504349636365028, 1.9502187540453642], [-0.14739810456746694, 1.950163248862844], [-0.1473893639175416, 1.965654043050403], [-0.14736675174891212, 2.0057289177296758], [-0.13966101951473509, 2.0051008907943553], [-0.13974824500880936, 2.019892747759705], [-0.1383457439706329, 2.0199932597750467], [-0.13819874554220152, 2.04621231333139], [-0.13816626265343668, 2.052006052824242], [-0.13351305966726723, 2.051979949370848], [-0.13354878467715722, 2.0615063052615947], [-0.1294903688397708, 2.0617858178473045], [-0.12904946616628593, 2.0816781747348228], [0.05573682344092437, 2.074542847568408], [0.19054823770657958, 2.0838276248052447], [0.27196854022798533, 2.0775766197899936], [0.2980895821712679, 2.0664862656634786], [0.37180470635872476, 2.0699117456018556], [0.4170207777359698, 2.066440303219597], [0.4172238681800581, 2.0605844075990962], [0.42425638176784924, 2.0603128545236062], [0.45111297584115195, 2.0622375663933683], [0.4512042966505304, 2.0592722892871413], [0.4520534121901838, 2.0592395015884954], [0.45226689351620364, 2.0486938516543725], [0.45250126467174195, 2.048692536883331], [0.45274372102136823, 2.038650274210434], [0.45949077416429307, 2.039470941264509], [0.459925257455195, 2.0354599816873513], [0.4610426709570527, 2.0357560680553983], [0.46120230267652995, 2.025830960171113], [0.4623257724120595, 2.025913796221389], [0.46233207764089107, 2.0254503644674435], [0.46459203758705214, 2.025776030635546], [0.46738663018845983, 2.0080461557007743], [0.4676898062451184, 1.994478167785936], [0.4685855029869215, 1.9940978769048092], [0.4694537780042928, 1.947496850416614], [0.4788787347331562, 1.8604897750065157], [0.48403159072740626, 1.2631369899689369], [0.484047359922499, 1.2624312737893582], [0.48406260458637856, 1.2595416604948446], [0.4847699462342705, 1.1254656424432699], [0.4856064370370005, 1.0805705006100235], [0.48726444263382857, 0.8883636425145658], [0.492133367611487, 0.7302648272888099], [0.49710009630366714, 0.46369645815079324], [0.49741466261065415, 0.2034144057997932], [0.49743372473250913, 0.18764180686477516], [0.501576066557489, 0.016070780774968263], [0.5015453700377608, 0.005016261366379671], [0.5032882769736025, -0.05484700206051263], [0.5051470450473857, -0.1318350342308241], [0.507263644625225, -0.46758342427526695], [0.51325321908341, -0.4675834238582324], [0.5136701465737332, -0.46758342382920315], [0.5137239928037093, -0.46980610163625924], [0.5144931523793606, -0.4698030099646227], [0.5145781767653641, -0.4743663379252557], [0.5155021779196592, -0.4743553273576806], [0.5155644322140157, -0.4764935627079879], [0.5156634849113152, -0.48578791063681087], [0.51583462455794, -0.48577380316584134], [0.5230975428310506, -0.485175102568332], [0.5232825172393376, -0.49345323166550803], [0.5298672064946228, -0.49499028522934024], [0.5298672573911661, -0.49499193789049994], [0.5298865519126551, -0.4949948009995729], [0.5435290231428694, -0.4981793414100484], [0.5444623903241916, -0.5027908158281524], [0.7410480191174664, -0.559742312296466], [0.7419047542319022, -0.5676513158975026], [0.8702012145600593, -0.5986778963002558], [0.8768669095931361, -0.6430033014436581], [0.8771909051882559, -0.6431396227660962], [0.8839852891127048, -0.6903389588062685], [1.0073519276147165, -1.5106999572687516], [1.0070459833371246, -1.5452189780431065], [1.0465108492415052, -1.8193741462399489], [1.0040361508655897, -1.8848117641217068], [0.9997145004406577, -2.372414088217838], [1.0551502749678139, -2.5879690679026437], [1.1379400358080882, -2.905042546762619], [1.138111326554702, -2.910552597076239], [1.2324432800204752, -3.2773504363123793], [1.2300253180905425, -3.4247582319980614], [1.2259463931585377, -3.4259259398051896], [1.2335255533233493, -3.457396475041934], [1.135716931518012, -3.4732960246494193], [1.0653336690408035, -3.471905881824922], [1.0650105469853148, -3.4719983846665134], [0.9616202198566903, -3.501596794586331], [0.8344440949751282, -3.5380045629027568], [-0.11002860360094353, -3.728693407204387], [-0.11047377387869457, -3.675873983270251], [-0.11468632307529443, -3.6765587657944194], [-0.11573844956120295, -3.537866787733769], [-0.11729750067518367, -3.5388736808194805], [-0.11799319813990303, -3.449217452275928], [-0.11931731842735492, -3.4491919538826474], [-0.119323435311644, -3.4485076687392624], [-0.13284515513827513, -3.4482406006732154], [-0.13589291749309992, -2.8522933034903404], [-0.14726091261317426, -2.853422742402573], [-0.14994536811789516, -2.5642762651554323], [-0.1494789847498477, -1.7377188777031338], [-0.14899049446904677, -0.871982065550015], [-0.1532438426301409, -0.8744486751426889], [-0.15223167582888494, -0.4567406410993518], [-0.15219241608562148, -0.4497381627584763]]]}, "properties": {"image": "e9zR4mvMWw7-19", "condition": "manual", "method": "mv_strict", "n": 24, "workers": ["P001", "P002", "P003", "P004", "P005", "P006", "P007", "P008", "P009", "P010", "P011", "P012", "P014", "P017", "P018", "P019", "P020", "P021", "P022", "P023", "P024", "P025", "P026", "P027"], "records": ["R02444", "R01884", "R00377", "R00565", "R00080", "R02122", "R00927", "R00053", "R01075", "R02463", "R00225", "R01783", "R00054", "R00509", "R00496", "R01240", "R00398", "R01301", "R00813", "R01329", "R02038", "R00303", "R01346", "R00540"], "output_type": "BEV_region_only"}}, {"type": "Feature", "geometry": {"type": "Polygon", "coordinates": [[[-0.5358529844802389, -0.5327355579302703], [-0.5358480702446703, -0.532589730912088], [-0.5372325295889583, -0.5325907723332498], [-0.5345133498541148, -0.1654846266539281], [-0.530228284369691, -0.009118952598595298], [-0.5268642508700282, 0.11363748312720193], [-0.5280731810968916, 0.2503974548893427], [-0.5222146358754319, 0.40375387130792123], [-0.5216007411132427, 0.5564899671833587], [-0.5215193162688979, 0.5581743587405124], [-0.5215712833353795, 0.5638190181235443], [-0.5211001044617648, 0.681047615022248], [-0.510486563974615, 0.9854352569250837], [-0.5116920884215295, 1.0447180911225844], [-0.5084149339807708, 1.0448479071604033], [-0.5081249110152392, 1.0531655280978018], [-0.5011192623163453, 1.0530939519668518], [-0.5006772813582807, 1.0692222120082893], [-0.5005856548618954, 1.0725657405776192], [-0.49802032291070963, 1.0724611425827477], [-0.48978395971117783, 1.0721253158390365], [-0.3792733356019622, 1.082980260429704], [-0.09854067083032922, 1.110555324324691], [-0.04331028204923533, 1.1101449994294286], [0.0027343966800414746, 1.1138680030953976], [0.5119560851535787, 1.1207726524842725], [0.5530040721082622, 1.1208097895588824], [0.5530596441538498, 1.1057143692472482], [0.5645420772007653, 1.105629062439867], [0.5649839726782343, 0.6463658157097933], [0.5752185254709923, 0.3341724152012919], [0.5750822138185476, 0.2939307427884147], [0.5741061214293194, 0.263927352879199], [0.5749317254808866, 0.24950385574310885], [0.5745813042775778, 0.14605316009690916], [0.5785974219864833, 0.033476294621871905], [0.5783524517941608, 0.01729397522820081], [0.5811114856648345, -0.06042065729499563], [0.5809666794297629, -0.09440642134893751], [0.5853567684119239, -0.17999896046622804], [0.5874882582126566, -0.24003734866855986], [0.5850805859502755, -0.5317465434048142], [0.5810243334430161, -0.5317495946083155], [0.5814822016404991, -0.5505785218223781], [0.5791384115395788, -0.5505410933383735], [0.5793435234867018, -0.5540213804799354], [0.5790083528307656, -0.5540221671842408], [0.5697034582796007, -0.5540440074034673], [0.5696640227410822, -0.5566490528325362], [0.5279322735109143, -0.5566509345501839], [0.5279212577488811, -0.5590475834524055], [0.3829399077267004, -0.5586443816831502], [0.33999005976339697, -0.5566594090135575], [-0.043191534275916404, -0.5566766869753277], [-0.050411085201013076, -0.5574392067621674], [-0.31363588077554494, -0.5567071629284518], [-0.517157217477265, -0.560817620101029], [-0.5172548196854567, -0.5566980628645911], [-0.5209386200435615, -0.5566982289700689], [-0.5209394535602531, -0.5566039375737063], [-0.5260746666346641, -0.5566159908193077], [-0.5333931015886175, -0.556633168469512], [-0.532755174552708, -0.5327850275177031], [-0.5358529844802389, -0.5327355579302703]]]}, "properties": {"image": "q9vSo1VnCiC-02", "condition": "manual", "method": "mv50", "n": 24, "workers": ["P001", "P002", "P003", "P004", "P005", "P006", "P007", "P008", "P009", "P010", "P011", "P012", "P014", "P017", "P018", "P019", "P020", "P021", "P022", "P023", "P024", "P025", "P026", "P027"], "records": ["R00954", "R00849", "R01190", "R01087", "R00579", "R02450", "R00357", "R00912", "R01727", "R00498", "R01096", "R01015", "R01589", "R00604", "R00911", "R00816", "R01266", "R00449", "R01507", "R00119", "R02285", "R00060", "R00019", "R02376"], "output_type": "BEV_region_only"}}, {"type": "Feature", "geometry": {"type": "Polygon", "coordinates": [[[-0.5252658899975777, -0.21856982491437055], [-0.530228284369691, -0.009118952598595298], [-0.5268642508700282, 0.11363748312720193], [-0.5227819634887818, 0.2626036122042223], [-0.5222146358754319, 0.40375387130792123], [-0.520508759918799, 0.4484077936853686], [-0.5215193162688979, 0.5581743587405124], [-0.5076376457833397, 0.8453369410361777], [-0.510486563974615, 0.9854352569250837], [-0.5084149339807708, 1.0448479071604033], [-0.501337555205097, 1.0451282593035232], [-0.5011192623163453, 1.0530939519668518], [-0.5006772813582807, 1.0692222120082893], [-0.4980169468021986, 1.0693517961069647], [-0.49802032291070963, 1.0724611425827477], [-0.48978395971117783, 1.0721253158390365], [-0.3792733356019622, 1.082980260429704], [-0.04331028204923533, 1.1101449994294286], [0.28880406450422813, 1.1076776116838], [0.5494447107408853, 1.1203733394235909], [0.5499245082672384, 1.1057376612126444], [0.5530596441538498, 1.1057143692472482], [0.5534561491335303, 0.9980089705948558], [0.5649839726782343, 0.6463658157097933], [0.565202278851701, 0.419479578761199], [0.5741061214293194, 0.263927352879199], [0.5723270667547647, 0.20924229267431732], [0.5745813042775778, 0.14605316009690916], [0.5745116165224613, 0.12548007069261977], [0.5783524517941608, 0.01729397522820081], [0.5776426002391385, -0.029597626058316895], [0.5809666794297629, -0.09440642134893751], [0.5793896715523418, -0.46452734609158947], [0.5810243334430161, -0.5317495946083155], [0.5791032454486751, -0.5317510396935029], [0.5790309537297679, -0.5487177766618407], [0.5791384115395788, -0.5505410933383735], [0.579023192798272, -0.5505392533857199], [0.5790083528307656, -0.5540221671842408], [0.5697034582796007, -0.5540440074034673], [0.5279438052603477, -0.5541420246321149], [0.5279322735109143, -0.5566509345501839], [0.33999005976339697, -0.5566594090135575], [0.29723705852516796, -0.5546835338236511], [-0.03162874167967399, -0.5554554395269431], [-0.043191534275916404, -0.5566766869753277], [-0.31272868706946116, -0.556688840619172], [-0.31363588077554494, -0.5567071629284518], [-0.3201045398796104, -0.556689173202221], [-0.5172548196854567, -0.5566980628645911], [-0.5172572545076463, -0.556595294806816], [-0.5209394535602531, -0.5566039375737063], [-0.5260746666346641, -0.5566159908193077], [-0.5259793173531744, -0.5328932326264755], [-0.532755174552708, -0.5327850275177031], [-0.5327498881160107, -0.5325874003904695], [-0.5358480702446703, -0.532589730912088], [-0.5252658899975777, -0.21856982491437055]]]}, "properties": {"image": "q9vSo1VnCiC-02", "condition": "manual", "method": "mv_strict", "n": 24, "workers": ["P001", "P002", "P003", "P004", "P005", "P006", "P007", "P008", "P009", "P010", "P011", "P012", "P014", "P017", "P018", "P019", "P020", "P021", "P022", "P023", "P024", "P025", "P026", "P027"], "records": ["R00954", "R00849", "R01190", "R01087", "R00579", "R02450", "R00357", "R00912", "R01727", "R00498", "R01096", "R01015", "R01589", "R00604", "R00911", "R00816", "R01266", "R00449", "R01507", "R00119", "R02285", "R00060", "R00019", "R02376"], "output_type": "BEV_region_only"}}, {"type": "Feature", "geometry": {"type": "Polygon", "coordinates": [[[-0.9775613995636345, -0.09657539651417162], [-0.9795550142512466, -0.05971819472846476], [-0.9779602946635249, 0.14142872862024247], [-0.9778898958205209, 0.15030835284169014], [-0.9968834329840539, 0.36666131753523723], [-0.9684412419275779, 0.3678901092326364], [-0.9330600152475956, 0.3660647088304159], [-0.9103787394611994, 0.3648945286578108], [-0.8593060537242581, 0.3688877475496696], [-0.8252453103810525, 0.3683910460938042], [-0.8133010368895901, 0.3682168649852863], [-0.702577148935229, 0.376467334646236], [-0.6096718957979181, 0.3833900681820037], [-0.5702302318094828, 0.38632902072536174], [-0.4876009919874834, 0.38866391339309964], [-0.2090582244461298, 0.4006978329826898], [-0.20889775652941567, 0.4132533157432794], [-0.01561768107692881, 0.4276553696094163], [0.29951431138402684, 0.4488111272253088], [0.3016814342003932, 0.426256362915827], [0.767722784176992, 0.4589699989048913], [0.7654885607781289, 0.44285631063597536], [0.7869954023289186, 0.4438963975965799], [0.7869849150317912, 0.44373001491310265], [0.8172575767893192, 0.44503788867542843], [0.8156617617982181, 0.40625895284382885], [0.8572156343770674, 0.40707434302896284], [0.8556855292053881, 0.36707684365565696], [0.8950441587144168, 0.3662297593797781], [0.8914060317090711, 0.27193622973399956], [0.8979243963824066, 0.27159993202436533], [0.9042911310866548, 0.12571858284938325], [0.9084681577452328, 0.03001013687210015], [0.910114802847254, -0.007719534655588202], [0.8865664255535116, -0.2883128466343875], [0.8841542935489233, -0.3446578426116585], [0.8818420869109685, -0.34460622982953637], [0.8676302155193563, -0.34428899424615794], [0.828505623674965, -0.3434156600893682], [0.8207043636805391, -0.547343401471744], [0.8433811037261717, -0.7293571685200562], [0.8024101127564482, -0.7296858773341026], [0.8024206365088937, -0.7397697212586475], [0.7239590925724958, -0.7391303199495108], [0.6339246013127362, -0.7349093933286092], [0.6021523509010214, -0.7346624883075982], [0.38878408913182266, -0.7330043843183457], [-0.7352422770337265, -0.7242694741385921], [-0.918839304470258, -0.7228427250940846], [-0.9206569154456765, -0.7104681742112054], [-0.9358455911056224, -0.7112817933789756], [-0.9359174575658786, -0.7071264326568989], [-0.9365530344470155, -0.7071246291651916], [-0.9367305195295419, -0.6793328101474754], [-0.9368884888081417, -0.6793332932178825], [-0.9373039918998063, -0.6269562073463243], [-0.937888627063796, -0.5931522605743937], [-0.9490791165249974, -0.5169658361333367], [-0.9450220364455537, -0.30382720151183173], [-0.9663768845745363, -0.3033505213113513], [-0.979469789462546, -0.3030582631557704], [-0.9775613995636345, -0.09657539651417162]]]}, "properties": {"image": "q9vSo1VnCiC-32", "condition": "manual", "method": "mv50", "n": 24, "workers": ["P001", "P002", "P003", "P004", "P005", "P006", "P007", "P008", "P009", "P010", "P011", "P012", "P014", "P017", "P018", "P019", "P020", "P021", "P022", "P023", "P024", "P025", "P026", "P027"], "records": ["R02129", "R00876", "R01682", "R00627", "R01587", "R00429", "R00283", "R01592", "R01135", "R00001", "R01202", "R00302", "R00722", "R01212", "R00693", "R00599", "R01051", "R02056", "R02314", "R02449", "R00211", "R01758", "R02351", "R00948"], "output_type": "BEV_region_only"}}, {"type": "Feature", "geometry": {"type": "Polygon", "coordinates": [[[-0.9663768845745363, -0.3033505213113513], [-0.9775613995636345, -0.09657539651417162], [-0.9795550142512466, -0.05971819472846476], [-0.9779602946635249, 0.14142872862024247], [-0.9778898958205209, 0.15030835284169014], [-0.9762585562881482, 0.3560742632878494], [-0.9733758611875137, 0.35628906416694567], [-0.9733742830359952, 0.3564598160922917], [-0.9683618305215114, 0.3566626791894418], [-0.9671899441087201, 0.35675000102643145], [-0.9678687464455799, 0.36372789410592377], [-0.9330600152475956, 0.3660647088304159], [-0.9103787394611994, 0.3648945286578108], [-0.8795201097483967, 0.3633024596320754], [-0.8787616321502576, 0.36333914017663016], [-0.8365266679557317, 0.3664862324360879], [-0.8252453103810525, 0.3683910460938042], [-0.8133010368895901, 0.3682168649852863], [-0.702577148935229, 0.376467334646236], [-0.6096718957979181, 0.3833900681820037], [-0.4876009919874834, 0.38866391339309964], [-0.2091114498403899, 0.39653332126132745], [-0.2090582244461298, 0.4006978329826898], [0.17227151470722488, 0.4171724715403381], [0.3016814342003932, 0.426256362915827], [0.30201566155282805, 0.4227778248731191], [0.7548236521869831, 0.44234054767117675], [0.7654885607781289, 0.44285631063597536], [0.7654808880939824, 0.4428009736268896], [0.7869849150317912, 0.44373001491310265], [0.7845846326422825, 0.4056491423851813], [0.8156617617982181, 0.40625895284382885], [0.8154643061280191, 0.40146070191441063], [0.815808761585845, 0.4014724527588239], [0.8151404571821235, 0.36794946278400864], [0.8556855292053881, 0.36707684365565696], [0.8521234537335312, 0.2739629099925836], [0.8914060317090711, 0.27193622973399956], [0.8979243963824066, 0.27159993202436533], [0.9042911310866548, 0.12571858284938325], [0.9084681577452328, 0.03001013687210015], [0.8985904887785754, -0.007442731417665313], [0.8865664255535116, -0.2883128466343875], [0.8818420869109685, -0.34460622982953637], [0.8676302155193563, -0.34428899424615794], [0.828505623674965, -0.3434156600893682], [0.810090748643837, -0.3430046055939842], [0.8020384261881025, -0.3735363609483451], [0.8020636698139246, -0.39772476562596537], [0.8207043636805391, -0.547343401471744], [0.8158601310604533, -0.6739733840195361], [0.8023520129109423, -0.6740146918750387], [0.8024101127564482, -0.7296858773341026], [0.7889108894051191, -0.7297941811264528], [0.7889108105696007, -0.7361138051268639], [0.6339246013127362, -0.7349093933286092], [0.6021523509010214, -0.7346624883075982], [0.5402159239218707, -0.7317894520542104], [0.38878408913182266, -0.7330043843183457], [-0.7352422770337265, -0.7242694741385921], [-0.9020560102359804, -0.7135057871567961], [-0.9023696815048097, -0.7099327976516764], [-0.9175259337361634, -0.7103004553929337], [-0.9206569154456765, -0.7104681742112054], [-0.920670346747836, -0.7103767320190947], [-0.9338808562144587, -0.7106971902694075], [-0.9339749789911834, -0.7071319445691554], [-0.9359174575658786, -0.7071264326568989], [-0.9363981624775398, -0.6793317937988672], [-0.9367305195295419, -0.6793328101474754], [-0.9369251012237952, -0.6488638876111408], [-0.9373039918998063, -0.6269562073463243], [-0.937554087883533, -0.5954298503141497], [-0.937888627063796, -0.5931522605743937], [-0.9396068224898019, -0.4938051971372495], [-0.9446220213113429, -0.3038361305987173], [-0.9450220364455537, -0.30382720151183173], [-0.9663768845745363, -0.3033505213113513]]]}, "properties": {"image": "q9vSo1VnCiC-32", "condition": "manual", "method": "mv_strict", "n": 24, "workers": ["P001", "P002", "P003", "P004", "P005", "P006", "P007", "P008", "P009", "P010", "P011", "P012", "P014", "P017", "P018", "P019", "P020", "P021", "P022", "P023", "P024", "P025", "P026", "P027"], "records": ["R02129", "R00876", "R01682", "R00627", "R01587", "R00429", "R00283", "R01592", "R01135", "R00001", "R01202", "R00302", "R00722", "R01212", "R00693", "R00599", "R01051", "R02056", "R02314", "R02449", "R00211", "R01758", "R02351", "R00948"], "output_type": "BEV_region_only"}}, {"type": "Feature", "geometry": {"type": "Polygon", "coordinates": [[[-2.6721832962465473, -0.4237428991938129], [-2.6722996414559894, -0.4209518389041521], [-2.6727496652452754, -0.410156005249274], [-2.766592439294333, -0.4135811587299487], [-2.765188478223589, -0.3799346107048883], [-2.806452588494563, -0.37995939638761334], [-2.8094464759890223, -0.1294913644023406], [-2.7442709810835444, 0.1213624599563762], [-2.7307549161716036, 0.44528093365619137], [-2.7258788601206816, 0.47268932775688954], [-2.709540218545165, 0.4724299889866999], [-2.7142310909469254, 0.5849615469873237], [-2.7106884615402698, 0.5846985154640746], [-2.7112253807228366, 0.5987381409606796], [-2.583618064886461, 0.5885098593339992], [-2.583875132862785, 0.6151549664983309], [-2.2366067246508337, 0.6323934036521766], [-2.3387498507756725, 0.6912497553321812], [-2.1304110834380725, 0.6628804386411248], [-2.1354585756493214, 0.6374144074882818], [-1.994704862195509, 0.644401435349633], [-1.8627381357158286, 0.6264316359501891], [-1.6699714915008421, 0.63814640722044], [-1.455806598432875, 0.6070104147077833], [-0.48939541082768767, 0.6642427172213573], [-0.48169878114095166, 0.6641082485699061], [-0.4803548197458267, 0.6647781144211566], [-0.3458202094659391, 0.6727454533891217], [-0.34300968560976913, 0.7072211293448225], [-0.33832374086558714, 0.7072071554538704], [-0.33821612810426144, 0.7186914693641243], [-0.33821142443868113, 0.7191934393106969], [-0.33817079022935254, 0.7235298768268021], [-0.33075000182388425, 0.7236034798803472], [-0.3307702095957288, 0.7269993113978352], [-0.3300385195195143, 0.7270356325635292], [-0.32914293128189087, 0.7322905285525568], [-0.29538012753156295, 0.7304174667139033], [-0.26239271112447254, 0.7351461242512699], [-0.23767875707911346, 0.7325372165503783], [-0.19518852826943203, 0.738176976868998], [-0.14310007839186467, 0.7363152747446573], [-0.11462193001256671, 0.737728932766768], [-0.10506562062377035, 0.7369648718106806], [-0.10234580688678477, 0.7348586694124715], [-0.059626026461753745, 0.7333318144925116], [0.018698573751570226, 0.7270694838699476], [0.05458844080596466, 0.7241999612310532], [0.07974858705441258, 0.7221883179683911], [0.21569879322660884, 0.7234913834007377], [0.3721270766919607, 0.71790045358196], [0.3721522658962784, 0.7152648472386238], [0.37796045905167247, 0.7156088170435995], [0.3766941459369726, 0.7050749105119389], [0.3790759894488357, 0.705067807649375], [0.37907181046133764, 0.7040909696412443], [0.37612697526727457, 0.6636676818612124], [0.3788863631990491, 0.6607426862612142], [0.37869989086084543, 0.6171547914643996], [0.37365517953567723, 0.5580114194795929], [0.3740653057248109, 0.5150989411013841], [0.367222568091205, 0.3747618481522136], [0.3672837580055991, 0.37118122253608427], [0.3674770028578474, 0.37103157524012714], [0.5319539777676994, 0.37469216554771406], [0.6337103729728125, 0.3745191974169555], [0.6478626420815381, 0.3756235034251818], [0.6489288284746817, 0.37449332869591945], [0.661256048292567, 0.37447237457146315], [0.6822600447040801, 0.37556979853268607], [0.6822990520299216, 0.37443660513392896], [0.6953374452580803, 0.3744144421386673], [0.7000976445891839, 0.374523545504755], [0.7000977319574753, 0.37440635048122795], [0.703599110250196, 0.3744003987485909], [0.7003420504280384, 0.2912945157360545], [0.7001607169701544, 0.28991883310277444], [0.7001630954445828, 0.28672836935507645], [0.6988607881279737, 0.25349919782921015], [0.7002131198403632, 0.21962610441820724], [0.700400599881119, -0.03185789991429608], [0.6977106899324474, -0.05515286425793453], [0.6986379780244305, -0.0706606692313903], [0.70008589774501, -0.09487542712388773], [0.7004521453274398, -0.10100048807250323], [0.7078103537933684, -0.22405788828090994], [0.7105175337684605, -0.26933229592696073], [0.7147758899363089, -0.340548304769777], [0.7116461747662052, -0.4781203194919862], [0.7125363720527021, -0.5039812486095047], [0.7052316881837268, -0.7600801128270765], [0.7038357602975872, -0.8214405246426887], [0.7031420421017127, -0.8333421454926443], [0.7023509428648401, -0.8610777216901231], [0.7015257472952202, -0.8610717453258652], [0.701025176821978, -0.8696596705333064], [0.7010329148012857, -0.8800393248896902], [0.6805624008566463, -0.8799704385035406], [0.6799993596350005, -0.8914480856497592], [0.5330159908145282, -0.8914578941117097], [0.48812226601807396, -0.895920845707427], [0.35547555131898345, -0.8914697417014027], [0.3109021273157392, -0.8914727161653632], [0.21385124789898413, -0.8867173849940904], [-0.061645411122589644, -0.8774727965743994], [-0.1508478325330183, -0.8771726168884683], [-0.3215751723107421, -0.8915149225018878], [-0.49940569476915053, -0.8915267894493334], [-0.49934941139148875, -0.8759998561849562], [-0.5023330634758147, -0.8759898157428759], [-0.5017112995863744, -0.8497351744406259], [-0.5216711440053573, -0.8472901426047289], [-0.525287717445309, -0.8265004065769236], [-0.5365857904580216, -0.7281661729127209], [-0.5347128289606019, -0.6996936948094844], [-0.5319625220016234, -0.6578839433679436], [-0.519712387840373, -0.4716592520710719], [-0.5172952379382133, -0.43491410394267044], [-0.5163575660605098, -0.42065975752779966], [-0.514258835113908, -0.38875516632075824], [-0.5414685855984538, -0.3891611194541986], [-0.5415062924190339, -0.38622582539351846], [-0.6293304442339287, -0.39047196560999947], [-0.6370673979726178, -0.39058739631250766], [-0.691121209116318, -0.3880751116693072], [-0.7363510867283034, -0.38929313304485563], [-0.780958302378377, -0.39273416217683504], [-0.8269421906687392, -0.39342021416947814], [-0.8445973983489639, -0.3922081601981307], [-0.9674481478220917, -0.3955164786539995], [-1.1498742221751894, -0.40042913528167495], [-1.2086805564483079, -0.4020127648633594], [-1.2086807989955581, -0.4031072326255268], [-1.2239367762187212, -0.403802001719195], [-1.2232596798009774, -0.41161358442764423], [-1.4746661360309918, -0.4152204121903574], [-1.751008192791786, -0.42780524484379107], [-2.1079958515581425, -0.4262309434354632], [-2.56342722555978, -0.43849551672014553], [-2.5737070010580623, -0.4387723467040814], [-2.6714470755725537, -0.44140444535859563], [-2.6718226114782646, -0.43239553679417614], [-2.672022229683342, -0.4276068012032841], [-2.6721832962465473, -0.4237428991938129]]]}, "properties": {"image": "rPc6DW4iMge-06", "condition": "manual", "method": "mv50", "n": 24, "workers": ["P001", "P002", "P003", "P004", "P005", "P006", "P007", "P008", "P009", "P010", "P011", "P012", "P014", "P017", "P018", "P019", "P020", "P021", "P022", "P023", "P024", "P025", "P026", "P027"], "records": ["R01784", "R00020", "R02452", "R01886", "R02165", "R02468", "R01986", "R01798", "R01341", "R00525", "R02407", "R02456", "R00553", "R01518", "R01905", "R01662", "R01489", "R00634", "R02190", "R01557", "R02094", "R00500", "R00233", "R01695"], "output_type": "BEV_region_only"}}, {"type": "Feature", "geometry": {"type": "Polygon", "coordinates": [[[-2.672022229683342, -0.4276068012032841], [-2.6721832962465473, -0.4237428991938129], [-2.6722996414559894, -0.4209518389041521], [-2.6727496652452754, -0.410156005249274], [-2.674011725500542, -0.37987984451581863], [-2.765188478223589, -0.3799346107048883], [-2.7442709810835444, 0.1213624599563762], [-2.7017311276472844, 0.2850940117861137], [-2.709540218545165, 0.4724299889866999], [-2.7142310909469254, 0.5849615469873237], [-2.7106884615402698, 0.5846985154640746], [-2.583490177785464, 0.5752543556352631], [-2.583618064886461, 0.5885098593339992], [-2.477342885433971, 0.579991441261795], [-2.4765706518789035, 0.589127943942804], [-2.1915783994784874, 0.6064474291901637], [-2.2366067246508337, 0.6323934036521766], [-2.1354585756493214, 0.6374144074882818], [-2.140986995743962, 0.6095219586317299], [-1.8627381357158286, 0.6264316359501891], [-1.640003271885839, 0.5961020147717502], [-1.455806598432875, 0.6070104147077833], [-0.7903564799143025, 0.5102651003337539], [-0.48169878114095166, 0.6641082485699061], [-0.34671658337966804, 0.6617499599628625], [-0.3458202094659391, 0.6727454533891217], [-0.33922458655641324, 0.6731360559509142], [-0.33860916446580136, 0.6767470670603245], [-0.33832374086558714, 0.7072071554538704], [-0.33821612810426144, 0.7186914693641243], [-0.33821142443868113, 0.7191934393106969], [-0.33121683288970954, 0.7201218367556609], [-0.3307457324842729, 0.7228860352198208], [-0.33075000182388425, 0.7236034798803472], [-0.33062324462334913, 0.7236047371210215], [-0.3300385195195143, 0.7270356325635292], [-0.30785343065777493, 0.7281369025064667], [-0.307780669143165, 0.7286398823818812], [-0.29538012753156295, 0.7304174667139033], [-0.2795750206140709, 0.7295406454984049], [-0.24871292713418472, 0.7310726427843901], [-0.23767875707911346, 0.7325372165503783], [-0.2317714672232185, 0.7319136184823332], [-0.14310007839186467, 0.7363152747446573], [-0.10234580688678477, 0.7348586694124715], [-0.09088381317908643, 0.725982591500545], [0.018698573751570226, 0.7270694838699476], [0.05458844080596466, 0.7241999612310532], [0.07974858705441258, 0.7221883179683911], [0.2539181044891149, 0.7082628450061559], [0.3721522658962784, 0.7152648472386238], [0.37224952720966964, 0.7050881647479168], [0.3766941459369726, 0.7050749105119389], [0.3725769799822263, 0.6708260025292485], [0.372609761590152, 0.6673959849429836], [0.37612697526727457, 0.6636676818612124], [0.37304917425234246, 0.6214191932506773], [0.37365517953567723, 0.5580114194795929], [0.36568734574412687, 0.46459783692319895], [0.367222568091205, 0.3747618481522136], [0.3672837580055991, 0.37118122253608427], [0.36728638785111906, 0.37102733292325274], [0.3674770028578474, 0.37103157524012714], [0.3675080059958209, 0.37100756665355966], [0.4261464772021043, 0.368244607916938], [0.6061794062038407, 0.37237094742384935], [0.6337103729728125, 0.3745191974169555], [0.6489288284746817, 0.37449332869591945], [0.6495267356707985, 0.3738595374490598], [0.661256048292567, 0.37447237457146315], [0.6822990520299216, 0.37443660513392896], [0.6823100929989678, 0.3741158563266423], [0.6953374452580803, 0.3744144421386673], [0.7000977319574753, 0.37440635048122795], [0.7001607169701544, 0.28991883310277444], [0.6980469918513361, 0.2738830999765348], [0.6988607881279737, 0.25349919782921015], [0.6922597658761043, 0.08507005836574955], [0.6962398732636127, -0.03055518178018679], [0.6977106899324474, -0.05515286425793453], [0.6986379780244305, -0.0706606692313903], [0.70008589774501, -0.09487542712388773], [0.7004521453274398, -0.10100048807250323], [0.7078103537933684, -0.22405788828090994], [0.7105175337684605, -0.26933229592696073], [0.7069573638769752, -0.34190668697351984], [0.7116461747662052, -0.4781203194919862], [0.7052316881837268, -0.7600801128270765], [0.7031420421017127, -0.8333421454926443], [0.7015257472952202, -0.8610717453258652], [0.7010187718303661, -0.8610680736265016], [0.701025176821978, -0.8696596705333064], [0.7007264008165981, -0.8747855541503737], [0.6807191789973748, -0.8767745016691821], [0.6805624008566463, -0.8799704385035406], [0.6496180971485892, -0.8798663062252731], [0.5330159908145282, -0.8914578941117097], [0.35547555131898345, -0.8914697417014027], [0.21385124789898413, -0.8867173849940904], [0.031582548189918055, -0.8777865228063104], [-0.061645411122589644, -0.8774727965743994], [-0.12794011231091254, -0.8752482061598766], [-0.1508478325330183, -0.8771726168884683], [-0.49934941139148875, -0.8759998561849562], [-0.49925529545297853, -0.8500360289046784], [-0.5017112995863744, -0.8497351744406259], [-0.49881013970793414, -0.7272306140077522], [-0.49872056347905264, -0.7025191594771535], [-0.5347128289606019, -0.6996936948094844], [-0.5319625220016234, -0.6578839433679436], [-0.519712387840373, -0.4716592520710719], [-0.5172952379382133, -0.43491410394267044], [-0.5163575660605098, -0.42065975752779966], [-0.514258835113908, -0.38875516632075824], [-0.5140049857469213, -0.3848961865430078], [-0.5415062924190339, -0.38622582539351846], [-0.5415342842118172, -0.3840467993754007], [-0.691121209116318, -0.3880751116693072], [-0.7363510867283034, -0.38929313304485563], [-0.8445973983489639, -0.3922081601981307], [-0.9674481478220917, -0.3955164786539995], [-1.1498742221751894, -0.40042913528167495], [-1.2086805564483079, -0.4020127648633594], [-1.2240559750760411, -0.4024268183504647], [-1.2239367762187212, -0.403802001719195], [-1.4746661360309918, -0.4152204121903574], [-1.955058778772017, -0.42211241308335035], [-2.1079958515581425, -0.4262309434354632], [-2.56342722555978, -0.43849551672014553], [-2.5737070010580623, -0.4387723467040814], [-2.6714470755725537, -0.44140444535859563], [-2.6718226114782646, -0.43239553679417614], [-2.672022229683342, -0.4276068012032841]], [[-2.1238917856798967, 0.5674454199811494], [-2.1467196364353405, 0.5805991588878573], [-2.14962887359638, 0.5659212314987035], [-2.1238917856798967, 0.5674454199811494]]]}, "properties": {"image": "rPc6DW4iMge-06", "condition": "manual", "method": "mv_strict", "n": 24, "workers": ["P001", "P002", "P003", "P004", "P005", "P006", "P007", "P008", "P009", "P010", "P011", "P012", "P014", "P017", "P018", "P019", "P020", "P021", "P022", "P023", "P024", "P025", "P026", "P027"], "records": ["R01784", "R00020", "R02452", "R01886", "R02165", "R02468", "R01986", "R01798", "R01341", "R00525", "R02407", "R02456", "R00553", "R01518", "R01905", "R01662", "R01489", "R00634", "R02190", "R01557", "R02094", "R00500", "R00233", "R01695"], "output_type": "BEV_region_only"}}, {"type": "Feature", "geometry": {"type": "Polygon", "coordinates": [[[-2.15374811542959, 0.0654347925983263], [-2.1588319788767607, 0.2179056867223712], [-2.153157701420628, 0.32738666104471725], [-2.151869239316589, 0.8990449388837023], [-2.157251458264291, 1.0047422624522069], [-2.151337433103242, 1.1349940002591772], [-2.151139086338907, 1.2229954784238375], [-2.167882027344663, 1.3358235162034906], [-2.1586903217174673, 1.7142312065283454], [-2.1543256144590304, 1.7779367838325077], [-2.1565496064541905, 1.8023609999828887], [-2.149146303849427, 2.107143023370993], [-2.1423215977056973, 2.388105163994137], [-2.142219865869603, 2.392293299547018], [-2.120651630816125, 2.391944804819416], [-2.1205224524354604, 2.4042506802917645], [-1.8916414445279188, 2.3922294713260586], [-1.7485859106036412, 2.394583087996372], [-1.717742913657135, 2.399032609995623], [-1.5988618217888606, 2.3970464188561795], [-1.3428002310450058, 2.401259264120317], [-1.071768590278921, 2.3926724386368], [-0.5094726284729283, 2.4149695602790375], [-0.46197856608627147, 2.415750954845943], [-0.041962035059219915, 2.4021390151393467], [0.04033551425290549, 2.4083333770253588], [0.10788470511689363, 2.4037928950511094], [0.2617950249068749, 2.405878353964647], [0.2623861447307636, 2.3934077077144487], [0.29490733650353196, 2.3912217172808594], [0.34515274313850675, 2.3895933588827356], [0.3451824480409727, 2.3878423542600826], [0.3548067072293658, 2.3871954364391366], [0.35539994287589555, 2.3519373161879975], [0.3559926621053842, 2.351927739162992], [0.3559634379011844, 2.3402829373128036], [0.3646406056291164, 2.3403917097004814], [0.3677467735442029, 2.3404306469794696], [0.3778426619993678, 2.340557203700214], [0.37857182498573794, 2.340566344101958], [0.378683886159237, 2.2836624887934223], [0.37266352974383626, 1.7931038645660409], [0.37062875747706525, 1.627303866205514], [0.38031879353623516, 1.192672807567675], [0.3801588328737528, 0.8804277635580599], [0.3799340233920531, 0.4415970822034252], [0.37988318004850846, 0.3423502936722169], [0.3796663971649923, -0.08081237615913262], [0.3834995134000796, -0.1616782762218354], [0.38381167039569447, -0.32018934617917744], [0.37954376212103397, -0.3201973855961851], [0.3795405397371429, -0.32648751583355895], [0.35588386556693313, -0.32638875033282705], [0.35593785054965965, -0.3326532619813997], [0.027469137049193293, -0.3289683357517701], [-0.06535377524609598, -0.324630103017373], [-0.5334274472071672, -0.3226759174772577], [-0.6586662082841145, -0.3221530515469157], [-1.1254474151085434, -0.32020426198788726], [-1.1338710935405305, -0.32016909352708195], [-1.803280431211015, -0.3173743410629814], [-1.922632247862414, -0.3168760528484158], [-1.9635669786210252, -0.3167051522750043], [-2.0837168664340235, -0.316203532150918], [-2.0899888416711048, -0.3161773469496335], [-2.099851293529508, -0.31613617167752084], [-2.0998528515213786, -0.3094756574020707], [-2.1270379407176767, -0.30958998661883796], [-2.154595069484037, -0.31033745142483526], [-2.1545936459711204, -0.3097058744931188], [-2.1725168085472126, -0.309781251885649], [-2.1721475596263424, -0.3028294645115184], [-2.1715747834901657, -0.2920459044613037], [-2.1537995715051106, 0.042605024129282354], [-2.15374811542959, 0.0654347925983263]]]}, "properties": {"image": "wc2JMjhGNzB-15", "condition": "manual", "method": "mv50", "n": 24, "workers": ["P001", "P002", "P003", "P004", "P005", "P006", "P007", "P008", "P009", "P010", "P011", "P012", "P014", "P017", "P018", "P019", "P020", "P021", "P022", "P023", "P024", "P025", "P026", "P027"], "records": ["R00559", "R01279", "R01790", "R01099", "R01288", "R01102", "R00756", "R02096", "R00448", "R00205", "R01291", "R01645", "R02423", "R01204", "R01163", "R02268", "R02342", "R01201", "R00662", "R01528", "R01520", "R02163", "R01841", "R01316"], "output_type": "BEV_region_only"}}, {"type": "Feature", "geometry": {"type": "Polygon", "coordinates": [[[-2.1725168085472126, -0.309781251885649], [-2.1721475596263424, -0.3028294645115184], [-2.1715747834901657, -0.2920459044613037], [-2.1537995715051106, 0.042605024129282354], [-2.15330030881767, 0.052004558835430204], [-2.15374811542959, 0.0654347925983263], [-2.153157701420628, 0.32738666104471725], [-2.1395723622079323, 0.5895057035138053], [-2.138980111181674, 0.6459251085257186], [-2.151869239316589, 0.8990449388837023], [-2.151337433103242, 1.1349940002591772], [-2.14823143092996, 1.2034012473853302], [-2.151139086338907, 1.2229954784238375], [-2.1499954850548186, 1.7303826484049791], [-2.1543256144590304, 1.7779367838325077], [-2.149737362524686, 1.8449051326786625], [-2.149146303849427, 2.107143023370993], [-2.1423215977056973, 2.388105163994137], [-2.120688200425151, 2.38846108678215], [-2.120651630816125, 2.391944804819416], [-2.0138411378809775, 2.390218984716466], [-1.8916414445279188, 2.3922294713260586], [-1.7987275208272013, 2.387349478430007], [-1.7485859106036412, 2.394583087996372], [-1.5988618217888606, 2.3970464188561795], [-1.1504108762297536, 2.3895539801466525], [-1.071768590278921, 2.3926724386368], [-0.9642415127331916, 2.38926576535309], [-0.04806265238909868, 2.401679834619572], [-0.041962035059219915, 2.4021390151393467], [-0.03376936556955723, 2.4018735062488834], [0.10788470511689363, 2.4037928950511094], [0.2623861447307636, 2.3934077077144487], [0.2624398870118218, 2.392273925782814], [0.29490733650353196, 2.3912217172808594], [0.3451824480409727, 2.3878423542600826], [0.3455774223408433, 2.364559940668745], [0.35419495075986485, 2.364415964378481], [0.35447282642114447, 2.3519522963287254], [0.35539994287589555, 2.3519373161879975], [0.3555961111502905, 2.340278332698832], [0.3559634379011844, 2.3402829373128036], [0.3646406056291164, 2.3403917097004814], [0.3677467735442029, 2.3404306469794696], [0.3778426619993678, 2.340557203700214], [0.3713311836080903, 1.8839905332144142], [0.37266352974383626, 1.7931038645660409], [0.37062875747706525, 1.627303866205514], [0.3693480766738489, 1.5229497433676844], [0.3801588328737528, 0.8804277635580599], [0.3799340233920531, 0.4415970822034252], [0.37988318004850846, 0.3423502936722169], [0.3796663971649923, -0.08081237615913262], [0.37954376212103397, -0.3201973855961851], [0.3795405397371429, -0.32648751583355895], [0.35588386556693313, -0.32638875033282705], [-0.06535377524609598, -0.324630103017373], [-0.5334274472071672, -0.3226759174772577], [-0.6586662082841145, -0.3221530515469157], [-1.1254474151085434, -0.32020426198788726], [-1.1338710935405305, -0.32016909352708195], [-1.803280431211015, -0.3173743410629814], [-1.922632247862414, -0.3168760528484158], [-1.9635669786210252, -0.3167051522750043], [-2.0837168664340235, -0.316203532150918], [-2.0899888416711048, -0.3161773469496335], [-2.0903321376433612, -0.30943561722589624], [-2.0998528515213786, -0.3094756574020707], [-2.1270379407176767, -0.30958998661883796], [-2.1545936459711204, -0.3097058744931188], [-2.1725168085472126, -0.309781251885649]]]}, "properties": {"image": "wc2JMjhGNzB-15", "condition": "manual", "method": "mv_strict", "n": 24, "workers": ["P001", "P002", "P003", "P004", "P005", "P006", "P007", "P008", "P009", "P010", "P011", "P012", "P014", "P017", "P018", "P019", "P020", "P021", "P022", "P023", "P024", "P025", "P026", "P027"], "records": ["R00559", "R01279", "R01790", "R01099", "R01288", "R01102", "R00756", "R02096", "R00448", "R00205", "R01291", "R01645", "R02423", "R01204", "R01163", "R02268", "R02342", "R01201", "R00662", "R01528", "R01520", "R02163", "R01841", "R01316"], "output_type": "BEV_region_only"}}, {"type": "Feature", "geometry": {"type": "Polygon", "coordinates": [[[-2.275408758601888, -1.4536096418736877], [-2.2536685704241006, -1.365086635215315], [-2.263216312368199, -1.0889869505773482], [-2.279846978610039, -0.8855645968147611], [-2.280922709836622, -0.747882419736241], [-2.281056258455369, -0.7464799447649173], [-2.280969882184578, -0.7418448599777941], [-2.2789566419066696, -0.6338112611720177], [-2.2763908744835883, -0.49612819797498436], [-2.2753529890041753, -0.4404336518646188], [-2.269685623054369, -0.13631399658783544], [-2.256518776612035, 0.5702394246292859], [-2.2809086314199063, 1.113504245660913], [-2.2802755171258844, 1.2387274765757073], [-2.244056248329914, 1.2389980399372327], [-2.243825669131264, 1.251371277703848], [-2.2434564671629187, 1.2711832284998879], [-2.1266988230639354, 1.2748807449399062], [-2.0915728659486135, 1.2759931243897278], [-2.006664780724953, 1.2786820193518327], [-1.777721049890059, 1.2859322787685397], [-1.6473610259837161, 1.2900605594925518], [-1.3016552417248928, 1.3010084749851154], [-0.8356832169768615, 1.315765018210961], [-0.8347301938090923, 1.315795198837315], [-0.8088018883294414, 1.3166163042691064], [-0.5582846346931338, 1.3245497605406569], [-0.40153345769640525, 1.3295138042947967], [-0.12377136906777031, 1.3044354048892195], [0.2250739128686956, 1.288286765426861], [0.2510286945096258, 1.2887814883643394], [0.25355614214606903, 1.2970378731217154], [0.25335994195998107, 1.3502531668468214], [0.2539240211787536, 1.350271030278385], [0.25505033895961815, 1.3503066988510388], [0.2597642714231703, 1.350455981092177], [0.26060010520643945, 1.3669594468813449], [0.26240855764848814, 1.4026671840009843], [0.2640228020904156, 1.4345403009483606], [0.2643380645601321, 1.4407651311570944], [0.2648473163401249, 1.4508202635260128], [0.2633840995896036, 1.4844836608415803], [0.26298864454816623, 1.5026066669288807], [0.2674816039915214, 1.5028340454571625], [0.2696150632175034, 1.5449590134273101], [0.2824610776258544, 1.798602457326149], [0.2827025142841921, 1.8033696032717734], [0.28717710512179795, 1.8917200125123816], [0.31726943749957265, 1.9049807021873082], [0.32078182295694413, 1.9369014724445839], [0.3761878744115211, 1.9309440970552358], [0.38434841276546505, 1.9300666587776953], [0.38523377719279606, 1.9349303254441206], [0.45874438750228225, 1.9673240056311876], [0.4693988067875435, 2.0021286772362994], [0.6626552323785159, 2.1291795124150683], [0.7069227704290703, 2.0766879618278127], [0.8393801219572087, 2.1350575096490574], [0.8506290638704926, 2.252757459227329], [0.9032692610052222, 2.287364230978854], [0.9086627475557882, 2.2867033816734303], [0.9100736489023473, 2.2918375785664775], [0.9720010032388157, 2.332549922618169], [0.9756755410367212, 2.3479012853159147], [0.9872309366139816, 2.396177035458848], [1.0389350328957576, 2.3963381956010394], [1.0577018204052393, 2.424098971282858], [1.0648718237978247, 2.4239918716087745], [1.0735619363073858, 2.447560052175082], [1.216699255411791, 2.659295971567074], [1.6883175106626664, 2.6562562711886692], [1.7287021060650047, 2.6330024012746756], [1.7467897869412863, 2.53860806912227], [1.7502627602793694, 2.5364531823217975], [1.7825721172237396, 2.5506908409604536], [1.783674823328864, 2.515721893413701], [1.7892384255273235, 2.5122698274824495], [1.7852090167873373, 2.467069645705444], [1.782327474121975, 2.434745734015856], [1.7862908145032785, 2.4327637436984175], [1.7900766881326602, 2.3127063542006594], [1.8062808263257066, 2.2281416820738063], [1.7956491841747282, 2.135991705670099], [1.7701150454661472, 1.9146740346959918], [1.7589372292094652, 1.8177900830288065], [1.7529973545914679, 1.7663060979476264], [1.7600215169467326, 1.7417883349601069], [1.754388019032565, 1.710394633705042], [1.7447217698085578, 1.6565276854929347], [1.760073229508674, 1.6576887824938216], [1.7593793151664754, 1.6497889014250755], [1.7634164200348024, 1.6507650460378853], [1.7662231334768879, 1.632227636677141], [2.133623869826327, 1.632955090079199], [2.1920117713175507, 1.6291172947369263], [2.245849396804273, 1.6255785858082792], [2.273402953964828, 1.6277695280396132], [2.325049029072126, 1.631876205314561], [2.402771383772377, 1.6334880021158509], [2.521174057780677, 1.633722439392368], [2.621368747962942, 1.6326064815089223], [2.648646628975609, 1.633974835063934], [2.6853893778549933, 1.6358179793692658], [2.805384210626856, 1.64183733827512], [2.912672824437106, 1.647219308966002], [3.122045953641089, 1.6577221946387266], [3.14398711325023, 1.658822839653576], [3.1439107419156023, 1.6484036265614173], [3.1638387791526745, 1.64941213951054], [3.1718534340882414, 1.0366252921172745], [3.17502568057774, 0.7940807357911357], [3.1773024689844003, 0.6200013772765921], [3.1773014268548008, 0.6199800389050112], [3.177303297959219, 0.619937995275789], [3.1810437231163156, 0.3339514670528507], [3.174799118421307, 0.006876443014997596], [3.1887253666175943, -0.2533738940251716], [3.190240188038029, -0.36919455630627274], [3.1798311466826643, -0.5197307149108221], [3.193359852254285, -0.6077187616992757], [3.2077043538042855, -1.7044748856896121], [3.147239684899651, -1.702577993085417], [3.142123261331305, -1.7045940607485528], [3.142020527566462, -1.709974969588496], [3.142650318490731, -1.72166528189863], [3.1417965150348355, -1.7217081228856523], [3.1395658834497446, -1.8385424006256612], [3.1184240074419156, -1.828708810956971], [3.118326538827332, -1.842006290568873], [3.101220516196333, -1.839138010724318], [3.1011751463171833, -1.8467562000344289], [3.088736079201263, -1.8462765949076272], [3.0886906503027727, -1.866206825081073], [2.8068922633909237, -1.8675669944945217], [2.747434656083039, -1.860116550905941], [2.7275549090714426, -1.867949935801858], [2.555806063347843, -1.8687789239636017], [2.5108001532543307, -1.864495258321809], [2.4160647810307347, -1.8664748985613362], [2.296000938744083, -1.8525347544290969], [2.286456875050394, -1.8431422495544587], [2.201698632787029, -1.8350749541817415], [2.154771282879392, -1.8361371302901], [1.890568034397572, -1.80546152226442], [1.8211683988731435, -1.7974038014426454], [1.7955208622962804, -1.7964149258366642], [1.7620902572610158, -1.7932329985325313], [1.7509593694607208, -1.7914956550070802], [1.7343024979679045, -1.7888957987906202], [1.7241745704472606, -1.7873150004194642], [1.7240628902605657, -1.7861292598295104], [1.6948383616760545, -1.7827361138756088], [1.688126890131278, -1.7619426984189708], [1.6832099218390812, -1.7467089953771489], [1.6538438445100752, -1.6557273019944188], [1.6336151373627834, -1.593054919483661], [1.5965233452891878, -1.4781374922887607], [1.583372537516995, -1.4758087831103153], [1.5814824496372006, -1.431537936581023], [1.5441610186687549, -1.315909044409513], [1.5064614966406003, -1.1991087542170886], [1.5029149607264733, -1.1881209113569458], [1.481889496001336, -1.1881933275538492], [1.4676030029005782, -1.141681428700681], [1.297129627597371, -1.1465294090827305], [1.296436724178702, -1.1438676948963236], [1.1218349923490245, -1.1515144981105685], [0.9898898378829268, -1.1552667997190773], [0.9592747117968379, -1.1586339376648542], [0.9067697467463678, -1.1609334288056605], [0.7228066911754788, -1.1846413577538009], [0.6649270787727927, -1.1910071208298678], [0.594537714211295, -1.1912495568544994], [0.4776902402963822, -1.1902425348023156], [0.46917875361543154, -1.1916813199233685], [0.25157424466471134, -1.2284652733604406], [0.24637915803397026, -1.2296781412528213], [0.2469657510948964, -1.2391615137115197], [0.2418424815660542, -1.2382542991143533], [0.242148263731783, -1.2490972193758438], [0.24023491030870106, -1.2496488932727392], [0.24265188742446325, -1.26695552556095], [0.2429565781305621, -1.2777597430756407], [0.2453228623341065, -1.2860808951437956], [0.25063214855535737, -1.324097748404351], [0.2492941553252465, -1.4599178658181007], [0.2560687715619604, -1.556013346672852], [0.27480872913301646, -1.7404807727501994], [0.26906776754966183, -1.7403994028597134], [0.2711801498211017, -1.7703627813051215], [0.27122073415028974, -1.7709384553347967], [0.27558293737960454, -1.8328147302794109], [0.27797521400984293, -1.8667483089631016], [0.2783892070944769, -1.8726206511221817], [0.278781127049202, -1.8781798939176302], [0.21660349253522485, -1.873166811633033], [0.21674767913628154, -1.8997328196678187], [-0.0022971475026336563, -1.8703496379284297], [-0.34447059106912836, -1.867581137101211], [-0.7115228613482041, -1.871320804972468], [-0.7779296548846445, -1.8640740508579579], [-0.8447141516184896, -1.863533702277642], [-1.2757266917840175, -1.8336901928783014], [-1.7527765878034955, -1.8242904657376902], [-1.7692832786042068, -1.8290498114649467], [-1.8145400439443986, -1.8269647492649796], [-1.8357155562567131, -1.8226562474320391], [-1.962115400847898, -1.820165681854546], [-2.0631777653697467, -1.8155095533283505], [-2.1079774359621704, -1.8117650333969189], [-2.1345545882267842, -1.812221092162948], [-2.229997064249674, -1.8078238822092383], [-2.257780713694569, -1.8065438385119208], [-2.256738876037293, -1.7369922163459812], [-2.254211567025471, -1.5682726080085865], [-2.274534179475281, -1.5655464855787868], [-2.275408758601888, -1.4536096418736877]]]}, "properties": {"image": "yqstnuAEVhm-32", "condition": "manual", "method": "mv50", "n": 24, "workers": ["P001", "P002", "P003", "P004", "P005", "P006", "P007", "P008", "P009", "P010", "P011", "P012", "P014", "P017", "P018", "P019", "P020", "P021", "P022", "P023", "P024", "P025", "P026", "P027"], "records": ["R01616", "R00157", "R01351", "R01439", "R01478", "R02148", "R00384", "R02195", "R01601", "R01095", "R01960", "R02361", "R01029", "R00671", "R00264", "R00388", "R02123", "R00026", "R01920", "R02256", "R01597", "R01850", "R02072", "R01819"], "output_type": "BEV_region_only"}}, {"type": "Feature", "geometry": {"type": "Polygon", "coordinates": [[[-2.229997064249674, -1.8078238822092383], [-2.257780713694569, -1.8065438385119208], [-2.256738876037293, -1.7369922163459812], [-2.254211567025471, -1.5682726080085865], [-2.251923769365595, -1.4155424419212344], [-2.2536685704241006, -1.365086635215315], [-2.251005546565231, -1.354243174392332], [-2.249538316392455, -1.256292943956077], [-2.263216312368199, -1.0889869505773482], [-2.2716414477548437, -0.8453505769819737], [-2.280922709836622, -0.747882419736241], [-2.280969882184578, -0.7418448599777941], [-2.2789566419066696, -0.6338112611720177], [-2.2763908744835883, -0.49612819797498436], [-2.2753529890041753, -0.4404336518646188], [-2.269685623054369, -0.13631399658783544], [-2.256518776612035, 0.5702394246292859], [-2.244056248329914, 1.2389980399372327], [-2.243825669131264, 1.251371277703848], [-2.2434564671629187, 1.2711832284998879], [-2.1266988230639354, 1.2748807449399062], [-2.0915728659486135, 1.2759931243897278], [-2.006664780724953, 1.2786820193518327], [-1.777721049890059, 1.2859322787685397], [-1.6473610259837161, 1.2900605594925518], [-1.3016552417248928, 1.3010084749851154], [-0.8356832169768615, 1.315765018210961], [-0.8347301938090923, 1.315795198837315], [-0.8088018883294414, 1.3166163042691064], [-0.5582846346931338, 1.3245497605406569], [-0.12377136906777031, 1.3044354048892195], [0.019206589496811866, 1.291526305707327], [0.16432803104170024, 1.2871288908774652], [0.2250739128686956, 1.288286765426861], [0.2510286945096258, 1.2887814883643394], [0.2535864029769235, 1.288830240731578], [0.25355614214606903, 1.2970378731217154], [0.25440758748025655, 1.2998192800152], [0.2546963879627618, 1.3225042389587645], [0.2539240211787536, 1.350271030278385], [0.25505033895961815, 1.3503066988510388], [0.2597642714231703, 1.350455981092177], [0.26060010520643945, 1.3669594468813449], [0.26240855764848814, 1.4026671840009843], [0.2640228020904156, 1.4345403009483606], [0.2643380645601321, 1.4407651311570944], [0.2648473163401249, 1.4508202635260128], [0.2674816039915214, 1.5028340454571625], [0.2696150632175034, 1.5449590134273101], [0.2824610776258544, 1.798602457326149], [0.2827025142841921, 1.8033696032717734], [0.29287132329532073, 1.8031013666001308], [0.30671762638407907, 1.8090852082263749], [0.31726943749957265, 1.9049807021873082], [0.3761878744115211, 1.9309440970552358], [0.38434841276546505, 1.9300666587776953], [0.44533190063100003, 1.9235095856741449], [0.45874438750228225, 1.9673240056311876], [0.7069227704290703, 2.0766879618278127], [0.765422678538838, 2.0073199549061984], [0.7802972423011998, 2.01374817139423], [0.83560550543214, 2.095562935127942], [0.8393801219572087, 2.1350575096490574], [0.8707938714963926, 2.1489005039020603], [0.9086627475557882, 2.2867033816734303], [0.9595350642876748, 2.280470134429298], [0.9720010032388157, 2.332549922618169], [0.9756755410367212, 2.3479012853159147], [0.9948335861336317, 2.347560542405863], [1.0148613765177712, 2.360727232658511], [1.0389350328957576, 2.3963381956010394], [1.054693409271328, 2.3963873139951324], [1.0648718237978247, 2.4239918716087745], [1.4809518114933593, 2.4177768074539943], [1.6444423497066185, 2.489821648140188], [1.7267705537572078, 2.551029466335693], [1.7467897869412863, 2.53860806912227], [1.7474409737801362, 2.535209714895429], [1.7502627602793694, 2.5364531823217975], [1.783674823328864, 2.515721893413701], [1.7852090167873373, 2.467069645705444], [1.782327474121975, 2.434745734015856], [1.7773629389202572, 2.3790557040297817], [1.7900766881326602, 2.3127063542006594], [1.7956491841747282, 2.135991705670099], [1.7701150454661472, 1.9146740346959918], [1.7589372292094652, 1.8177900830288065], [1.7529973545914679, 1.7663060979476264], [1.749937767616461, 1.739787065088152], [1.754388019032565, 1.710394633705042], [1.7447217698085578, 1.6565276854929347], [1.7427928463833224, 1.645778405617737], [1.7593793151664754, 1.6497889014250755], [1.7567707216210229, 1.6200913184345298], [2.1920117713175507, 1.6291172947369263], [2.245849396804273, 1.6255785858082792], [2.273402953964828, 1.6277695280396132], [2.3581993726349233, 1.6194049886901394], [2.621368747962942, 1.6326064815089223], [2.648646628975609, 1.633974835063934], [2.6853893778549933, 1.6358179793692658], [2.805384210626856, 1.64183733827512], [2.912672824437106, 1.647219308966002], [3.122045953641089, 1.6577221946387266], [3.1219904539581242, 1.6484030802966763], [3.1315238179127705, 1.6486007820465383], [3.1315604080190362, 1.6477786040610827], [3.1439107419156023, 1.6484036265614173], [3.142160336202545, 1.409598710935283], [3.152306350869602, 1.1816182334059904], [3.1718534340882414, 1.0366252921172745], [3.17502568057774, 0.7940807357911357], [3.1715142329610013, 0.7500180164516881], [3.1773014268548008, 0.6199800389050112], [3.160452416051205, 0.2749841253288609], [3.174799118421307, 0.006876443014997596], [3.1664113592635887, -0.432451050417446], [3.1798311466826643, -0.5197307149108221], [3.1589906493682083, -0.8211271934164805], [3.151039807256755, -1.2375701872866274], [3.168312032609858, -1.6942746776469277], [3.147239684899651, -1.702577993085417], [3.1421647923029887, -1.7024187839735823], [3.142123261331305, -1.7045940607485528], [3.141738803712388, -1.7047455518366128], [3.142020527566462, -1.709974969588496], [3.142650318490731, -1.72166528189863], [3.1417970534201323, -1.7216799237613591], [3.1417965150348355, -1.7217081228856523], [3.119199996390335, -1.722841940224191], [3.1184240074419156, -1.828708810956971], [3.1013299779261567, -1.8207579710229835], [3.101220516196333, -1.839138010724318], [3.0887571143963215, -1.8370481897911468], [3.088736079201263, -1.8462765949076272], [3.05691359041076, -1.8450496356325239], [3.0565208350303577, -1.853091591498859], [2.7489518583896126, -1.8595187148456818], [2.747434656083039, -1.860116550905941], [2.743562434131151, -1.859631335093848], [2.5108001532543307, -1.864495258321809], [2.286456875050394, -1.8431422495544587], [2.2765381180195887, -1.833381001437077], [2.201698632787029, -1.8350749541817415], [1.890568034397572, -1.80546152226442], [1.8211683988731435, -1.7974038014426454], [1.7644517500652832, -1.790818652708262], [1.7509593694607208, -1.7914956550070802], [1.7343024979679045, -1.7888957987906202], [1.7340834104969138, -1.78729270332519], [1.7240628902605657, -1.7861292598295104], [1.6948383616760545, -1.7827361138756088], [1.688126890131278, -1.7619426984189708], [1.6832099218390812, -1.7467089953771489], [1.6538438445100752, -1.6557273019944188], [1.6336151373627834, -1.593054919483661], [1.5965233452891878, -1.4781374922887607], [1.5814824496372006, -1.431537936581023], [1.5441610186687549, -1.315909044409513], [1.5064614966406003, -1.1991087542170886], [1.5029149607264733, -1.1881209113569458], [1.4877408857193024, -1.1411087406743685], [1.4676030029005782, -1.141681428700681], [1.4659936203737116, -1.1364418337365603], [1.296436724178702, -1.1438676948963236], [1.2907891247312162, -1.1221730471813565], [0.9898898378829268, -1.1552667997190773], [0.9396550188332683, -1.156695394752263], [0.9067697467463678, -1.1609334288056605], [0.5616640311186682, -1.1760475715341556], [0.4776902402963822, -1.1902425348023156], [0.46917875361543154, -1.1916813199233685], [0.3267204637271318, -1.1921719767390893], [0.24544972882055915, -1.214652182045502], [0.24637915803397026, -1.2296781412528213], [0.24163188041334138, -1.2307864616739297], [0.2418424815660542, -1.2382542991143533], [0.23856247108668188, -1.2376734838031551], [0.24023491030870106, -1.2496488932727392], [0.2353622225673199, -1.2510538269364386], [0.2429565781305621, -1.2777597430756407], [0.24729321501414983, -1.431535251270216], [0.2492941553252465, -1.4599178658181007], [0.2560687715619604, -1.556013346672852], [0.26906776754966183, -1.7403994028597134], [0.2711801498211017, -1.7703627813051215], [0.27122073415028974, -1.7709384553347967], [0.27558293737960454, -1.8328147302794109], [0.27797521400984293, -1.8667483089631016], [0.2783892070944769, -1.8726206511221817], [0.21659781478794124, -1.8721207013922068], [0.21660349253522485, -1.873166811633033], [0.20218183050180472, -1.8720040626957453], [-0.0022971475026336563, -1.8703496379284297], [-0.045632998314353856, -1.8645364662604638], [-0.34447059106912836, -1.867581137101211], [-0.7779296548846445, -1.8640740508579579], [-1.0080200179262175, -1.838965049259113], [-1.2757266917840175, -1.8336901928783014], [-1.686687393368036, -1.8052350821388965], [-1.7527765878034955, -1.8242904657376902], [-1.8357155562567131, -1.8226562474320391], [-1.9062565254490997, -1.8083035417888302], [-2.1079774359621704, -1.8117650333969189], [-2.2102596958137597, -1.8032159089149429], [-2.229997064249674, -1.8078238822092383]]]}, "properties": {"image": "yqstnuAEVhm-32", "condition": "manual", "method": "mv_strict", "n": 24, "workers": ["P001", "P002", "P003", "P004", "P005", "P006", "P007", "P008", "P009", "P010", "P011", "P012", "P014", "P017", "P018", "P019", "P020", "P021", "P022", "P023", "P024", "P025", "P026", "P027"], "records": ["R01616", "R00157", "R01351", "R01439", "R01478", "R02148", "R00384", "R02195", "R01601", "R01095", "R01960", "R02361", "R01029", "R00671", "R00264", "R00388", "R02123", "R00026", "R01920", "R02256", "R01597", "R01850", "R02072", "R01819"], "output_type": "BEV_region_only"}}, {"type": "Feature", "geometry": {"type": "Polygon", "coordinates": [[[-2.6121762309461243, -0.333550024197806], [-2.612997110495077, -0.3188276593263078], [-2.6232211301242927, 0.4734671498871179], [-2.622011340521466, 0.47346176526387507], [-2.623279491285289, 0.47798975905591895], [-2.6232878842260674, 0.47864015720203307], [-2.5959404223454006, 0.4784526743029219], [-2.5959105046585345, 0.4799489497928307], [-2.5279027286086593, 0.47962916950372886], [-2.527878805919112, 0.4806621963521219], [-2.395047451783782, 0.48020994245682475], [-2.3949271398252248, 0.481210513445371], [-2.21895355056782, 0.4796103915956489], [-2.191515799877738, 0.4795169736695233], [-2.1626161306653557, 0.4790981173565241], [-1.9124687209278242, 0.47682353548511075], [-1.7900816563217106, 0.4775493549891487], [-1.7257184073852168, 0.47793106282381004], [-1.3227634573971458, 0.4803207970893654], [-1.0585867419757413, 0.4818875036133158], [-0.890204569274662, 0.47806622630616336], [-0.7357226326722893, 0.4745604019707596], [0.08108142464602908, 0.4717794108484349], [0.1056981949777327, 0.4714124011810883], [0.1181467628203754, 0.47165321365893115], [0.6125563553992514, 0.4699698862128504], [0.6498815485880642, 0.4700390344941547], [0.758449083699911, 0.46947316196352684], [1.1177671891734995, 0.4682497835382368], [1.1177997252402843, 0.4676001650616289], [1.1285254344891227, 0.4675442608336369], [1.1290487146562949, 0.46243376836458566], [1.1306618271539535, 0.4624261833263618], [1.1308726541030494, 0.45675814478475896], [1.1403861075134523, 0.4567158015853846], [1.1405071437594918, 0.45476813323700593], [1.1489201218045817, 0.4547549883221932], [1.149164107669537, 0.44789930727533467], [1.1551269471366639, 0.4478391563084179], [1.1523710501068005, 0.35778845397016346], [1.1579126015187775, 0.20207816726048844], [1.158483675581776, 0.19957140901725093], [1.1583018856074674, 0.19113979773992534], [1.1590873920474762, 0.16906810266881145], [1.1606563025006789, 0.15374570835939985], [1.1607754202995333, 0.12861888468598692], [1.174934971920933, -0.0992311306823828], [1.176903898878538, -0.33155224361788704], [1.1797029314466556, -0.4102013675345783], [1.1775703728105453, -0.4101920149046533], [1.1775997147906896, -0.4136541857366026], [1.177395147032426, -0.4136534884077053], [1.1775776283166872, -0.41598918156489006], [1.1775776283166866, -0.41598918156489006], [1.1778911606756268, -0.4200022801590684], [1.1634782330082096, -0.41983604157690213], [1.1634782330082099, -0.4198360415769029], [0.7985447215463367, -0.41562690163460475], [0.05947581858088902, -0.4149204990350948], [-0.05208474560314391, -0.41635658628618405], [-0.21476983014080853, -0.4146583748429065], [-0.2962218322380387, -0.4145805229595626], [-0.6857271021953242, -0.40987526160919713], [-1.101036236723262, -0.40980166368941223], [-1.6939422911780826, -0.40569023901521506], [-2.211459315561526, -0.4021015890977781], [-2.226118096026119, -0.4019999398208936], [-2.3442561057453988, -0.40118072820301426], [-2.376987663588692, -0.4014071538781311], [-2.377114893445835, -0.4009528735041109], [-2.4515859872472343, -0.40043646404890465], [-2.50096625579313, -0.40066078481282913], [-2.5008981657133913, -0.40009451559727244], [-2.5115811851098466, -0.4000204356832431], [-2.547388065897987, -0.39977213784234183], [-2.5479491946120754, -0.3903031494869721], [-2.548122576748691, -0.387377344067613], [-2.5894017969571683, -0.3868786870932376], [-2.5888919663208707, -0.37655623638440155], [-2.6097917607371857, -0.37631517833766004], [-2.6121762309461243, -0.333550024197806]]]}, "properties": {"image": "yqstnuAEVhm-34", "condition": "manual", "method": "mv50", "n": 24, "workers": ["P001", "P002", "P003", "P004", "P005", "P006", "P007", "P008", "P009", "P010", "P011", "P012", "P014", "P017", "P018", "P019", "P020", "P021", "P022", "P023", "P024", "P025", "P026", "P027"], "records": ["R01221", "R02024", "R02080", "R00568", "R02169", "R01065", "R01838", "R00921", "R01309", "R01602", "R01218", "R00428", "R01280", "R02170", "R00535", "R01108", "R00621", "R01398", "R02399", "R01581", "R02408", "R00899", "R01743", "R00427"], "output_type": "BEV_region_only"}}, {"type": "Feature", "geometry": {"type": "Polygon", "coordinates": [[[-2.6121762309461243, -0.333550024197806], [-2.598512814615801, 0.3497994290882534], [-2.6106818946579167, 0.4330094294684225], [-2.622011340521466, 0.47346176526387507], [-2.5960425255074537, 0.473346181294078], [-2.5959404223454006, 0.4784526743029219], [-2.527940769391133, 0.4779864967786583], [-2.5279027286086593, 0.47962916950372886], [-2.3951923199955183, 0.47900515008568456], [-2.395047451783782, 0.48020994245682475], [-2.21895355056782, 0.4796103915956489], [-2.1626161306653557, 0.4790981173565241], [-2.0414309113319478, 0.4773417237526055], [-1.9207645549951076, 0.47677433683664516], [-1.9124687209278242, 0.47682353548511075], [-1.7900816563217106, 0.4775493549891487], [-1.7257184073852168, 0.47793106282381004], [-1.3227634573971458, 0.4803207970893654], [-0.890204569274662, 0.47806622630616336], [-0.7357226326722893, 0.4745604019707596], [-0.5490688713437453, 0.4703244678987743], [-0.16665691958907702, 0.46852632345719725], [-0.030450613234313306, 0.46877865790432505], [0.1056981949777327, 0.4714124011810883], [0.2477805100183258, 0.46929410611328565], [0.6125563553992514, 0.4699698862128504], [0.758449083699911, 0.46947316196352684], [1.1177997252402843, 0.4676001650616289], [1.1180558947633674, 0.46248545785257633], [1.1290487146562949, 0.46243376836458566], [1.1296292938116494, 0.4567636788269665], [1.1308726541030494, 0.45675814478475896], [1.130946118420903, 0.454783071926127], [1.1405071437594918, 0.45476813323700593], [1.1408618893757372, 0.44905970430686704], [1.1463259262227015, 0.4490100200060387], [1.1462537534358315, 0.44792866587574526], [1.149164107669537, 0.44789930727533467], [1.1523710501068005, 0.35778845397016346], [1.1504449686552782, 0.29485250767362525], [1.1555718249776006, 0.212353123295723], [1.1579126015187775, 0.20207816726048844], [1.1583018856074674, 0.19113979773992534], [1.158045413331252, 0.17924434231295927], [1.1590873920474762, 0.16906810266881145], [1.1601939170328843, 0.13797620981784364], [1.1607754202995333, 0.12861888468598692], [1.1608136070339148, 0.12056373801021235], [1.176903898878538, -0.33155224361788704], [1.1775703728105453, -0.4101920149046533], [1.177124558872414, -0.41019005972616107], [1.177395147032426, -0.4136534884077053], [1.1773951470324255, -0.4136534884077053], [1.1775776283166866, -0.41598918156489006], [1.163334639799032, -0.41597556810601866], [1.1634782330082096, -0.41983604157690213], [0.7985447215464031, -0.4156269016346048], [0.7985447215463367, -0.41562690163460475], [0.3967286853257852, -0.41099235897302033], [0.37134898867795385, -0.4109058448711525], [0.05947581858088902, -0.4149204990350948], [-0.21476983014080853, -0.4146583748429065], [-0.672761913470127, -0.4098775592011364], [-0.6857271021953242, -0.40987526160919713], [-0.766778024229272, -0.40889615862838347], [-1.0327796591611218, -0.40611946264758375], [-1.5166040051172174, -0.4044702061835283], [-1.6939422911780826, -0.40569023901521506], [-2.211459315561526, -0.4021015890977781], [-2.226118096026119, -0.4019999398208936], [-2.3442561057453988, -0.40118072820301426], [-2.377114893445835, -0.4009528735041109], [-2.4515859872472343, -0.40043646404890465], [-2.5008981657133913, -0.40009451559727244], [-2.5115811851098466, -0.4000204356832431], [-2.547388065897987, -0.39977213784234183], [-2.5479491946120754, -0.3903031494869721], [-2.548122576748691, -0.387377344067613], [-2.548736385208881, -0.3770193905071556], [-2.5888919663208707, -0.37655623638440155], [-2.6097917607371857, -0.37631517833766004], [-2.6121762309461243, -0.333550024197806]]]}, "properties": {"image": "yqstnuAEVhm-34", "condition": "manual", "method": "mv_strict", "n": 24, "workers": ["P001", "P002", "P003", "P004", "P005", "P006", "P007", "P008", "P009", "P010", "P011", "P012", "P014", "P017", "P018", "P019", "P020", "P021", "P022", "P023", "P024", "P025", "P026", "P027"], "records": ["R01221", "R02024", "R02080", "R00568", "R02169", "R01065", "R01838", "R00921", "R01309", "R01602", "R01218", "R00428", "R01280", "R02170", "R00535", "R01108", "R00621", "R01398", "R02399", "R01581", "R02408", "R00899", "R01743", "R00427"], "output_type": "BEV_region_only"}}]}