{"type": "FeatureCollection", "features": [{"type": "Feature", "properties": {"kind": "annotation", "id": "R01784", "worker": "P001"}, "geometry": {"type": "Polygon", "coordinates": [[[-0.3391551352004621, 0.9182419535065326], [-2.775501439323272, 0.8275153369189856], [-2.8395045297071566, -0.570441844795979], [-0.6740972748845079, -0.47422439327547744], [-0.7230564305001881, -1.2672037882991714], [0.8861085493193773, -1.1590632776473222], [0.733790829091776, 0.3752957904440425], [0.3726589973490611, 0.3670186794022683], [-0.3391551352004621, 0.9182419535065326]]]}}, {"type": "Feature", "properties": {"kind": "annotation", "id": "R00020", "worker": "P002"}, "geometry": {"type": "Polygon", "coordinates": [[[-0.39005252079793296, 0.8099524052238839], [-0.33036179212953937, 1.6076720629633758], [-2.5698321338879055, 1.9418417437449873], [-3.2663067847325413, -0.8819383758795656], [-1.2087452391864337, -0.6938864990465741], [-1.2086728445973818, -0.3672138866394145], [-0.5730436271839439, -0.41085069517910383], [-0.5196083305593154, -0.8759316818473436], [0.7018100282459565, -0.8800419399943707], [0.737769507426323, 0.38068089772634156], [0.39371452198074836, 0.38603986734028534], [0.3803263861960304, 0.7230542500048047], [-0.39005252079793296, 0.8099524052238839]]]}}, {"type": "Feature", "properties": {"kind": "annotation", "id": "R02452", "worker": "P003"}, "geometry": {"type": "Polygon", "coordinates": [[[-0.3033702429460585, 0.7023599998534426], [-0.341120277311804, 0.4087639037969989], [-2.7142310909469254, 0.5849615469873237], [-2.6714470755725537, -0.44140444535859563], [-0.5139001588668604, -0.383302624127935], [-0.5546194727869502, -1.0023114908696122], [0.7535677006363166, -0.98929580848937], [0.6730894175090657, 0.3566090188517332], [0.36728654731804, 0.3710180014615618], [0.36167053981699804, 0.6996476542031155], [-0.3033702429460585, 0.7023599998534426]]]}}, {"type": "Feature", "properties": {"kind": "annotation", "id": "R01886", "worker": "P004"}, "geometry": {"type": "Polygon", "coordinates": [[[-0.33086558193172083, 0.7430262334627546], [-0.32868468037879645, 0.3765348514869548], [-1.3665511579522438, 0.4417094688785438], [-1.4361686209095375, -0.3956109806930672], [-0.4902542357344947, -0.3659484719371844], [-0.5033472417746165, -0.9188145727025193], [0.7479453800632476, -0.9759676204314758], [0.6943524302984897, 0.3664241736241713], [0.3328749695889605, 0.3405622930668558], [0.3782098088920685, 0.7176830496184066], [-0.33086558193172083, 0.7430262334627546]]]}}, {"type": "Feature", "properties": {"kind": "annotation", "id": "R02165", "worker": "P005"}, "geometry": {"type": "Polygon", "coordinates": [[[-0.307780669143165, 0.7286398823818812], [-0.35231897388617806, 0.4207591147686156], [-2.8649173015701073, 0.7628975395389722], [-2.923357740433343, -0.49370367845381136], [-0.5459100040663217, -0.39973622751924576], [-0.4043999762132461, -0.78823833854434], [0.6601518394199947, -0.7883904193504097], [0.7275362054086615, 0.38184045662208643], [0.35615665662568646, 0.35286159366359615], [0.3968243610407155, 0.8296431208813159], [-0.307780669143165, 0.7286398823818812]]]}}, {"type": "Feature", "properties": {"kind": "annotation", "id": "R02468", "worker": "P006"}, "geometry": {"type": "Polygon", "coordinates": [[[-0.34091274947682043, 0.7329434837239294], [-0.36518385321532837, 0.4352186642960376], [-2.7258788601206816, 0.47268932775688954], [-2.895770214406322, -0.4822728679056971], [-0.5189361793977144, -0.39654237662221725], [-0.47681993894928665, -0.7904492096284157], [0.6043024284479053, -0.7862627337039655], [0.6161329493039329, 0.32063227013090695], [0.346239714056238, 0.3667361125960232], [0.3194470931835699, 0.6963086464570615], [-0.34091274947682043, 0.7329434837239294]]]}}, {"type": "Feature", "properties": {"kind": "reference"}, "geometry": {"type": "Polygon", "coordinates": [[[0.6926777886674805, -0.8872477742898965], [0.6927075871225378, 0.3835914028786487], [0.37770765722450733, 0.38354651811837803], [0.3777508648275241, 0.6998896468669759], [-0.39896644749943116, 0.6998617118790218], [-0.3990306177428888, 1.941841919057986], [-2.5698321338879055, 1.9418417437449873], [-2.5696988227715174, -0.6938466456512961], [-1.2087452391864337, -0.6938864990465741], [-1.2086728445973818, -0.3672138866394145], [-0.49997781119564655, -0.3672072423650889], [-0.4999811786011798, -0.8872812121842375], [0.6926777886674805, -0.8872477742898965]]]}}, {"type": "Feature", "properties": {"kind": "author_full_pool_tile"}, "geometry": {"type": "Polygon", "coordinates": [[[-2.8874471918383007, -0.435489016311084], [-2.885426658852223, -0.4241315659869838], [-2.885190399175907, -0.422803546322948], [-2.8841850738132937, -0.41715259533916543], [-2.81457147266252, -0.025853357762005664], [-2.8114898369830073, 0.04145580971358761], [-2.8093990402309226, 0.0871230473040253], [-2.785807227138446, 0.6024160486964893], [-2.782392555030116, 0.6769994066001527], [-2.780486730066215, 0.7186264855333245], [-2.7789955151307106, 0.751197641333226], [-2.6220100822811108, 0.7298210654932809], [-2.5849327040761394, 0.7247722697371535], [-2.3834282031469334, 0.6973335694194606], [-2.3470871349458235, 0.6923850363842338], [-2.338749850775672, 0.6912497553321812], [-2.1304110834380725, 0.6628804386411248], [-1.994704862195509, 0.6444014353496329], [-1.8627381357158288, 0.6264316359501891], [-1.640003271885839, 0.5961020147717502], [-0.8374081514632444, 0.4868133046726388], [-0.47082080544893107, 0.43689541062480813], [-0.36518385321532837, 0.4352186642960376], [-0.35180690180168167, 0.5993088716072474], [-0.34671658337966804, 0.6617499599628625], [-0.3458202094659391, 0.6727454533891217], [-0.34300968560976913, 0.7072211293448225], [-0.3420682514833526, 0.7187693600437792], [-0.34206201799910146, 0.7188458239324048], [-0.341683004826483, 0.7234950409434796], [-0.34144051002428444, 0.7264696366592163], [-0.34091274947682043, 0.7329434837239294], [-0.33808405132677255, 0.7327865558041657], [-0.33080224413907783, 0.7323825823883154], [-0.33084339941705704, 0.7392985546759988], [-0.33086448167902227, 0.7428413405997608], [-0.33086558193172083, 0.7430262334627546], [-0.32733476006926077, 0.7429000377595333], [-0.3251173814333209, 0.7428207860535082], [-0.23205682012635911, 0.7394946927432884], [-0.19791643625747835, 0.7443886250694185], [-0.19301905354393553, 0.7450906517269772], [-0.1276577278298299, 0.7544600222068022], [-0.1195886658575009, 0.7482114039847862], [-0.11736730487266672, 0.7464911994833077], [-0.10656851942826065, 0.7381287048420526], [-0.10506562062377033, 0.7369648718106806], [-0.10234580688678471, 0.7348586694124715], [-0.05962602646175382, 0.7333318144925116], [0.0945405190455311, 0.727821721833817], [0.12641833526876836, 0.7266823713958287], [0.21569879322660881, 0.7234913834007377], [0.3721270766919607, 0.71790045358196], [0.3782098088920685, 0.7176830496184066], [0.37796045905167247, 0.7156088170435995], [0.37669414593697254, 0.7050749105119389], [0.3725769799822263, 0.6708260025292485], [0.372214956246479, 0.6678144849588029], [0.36345923258995705, 0.5949794384413336], [0.36491541823540674, 0.5097684085588812], [0.36568734574412687, 0.46459783692319895], [0.3583118714994652, 0.3781289809868606], [0.36705655811127325, 0.37135716434996463], [0.3672837580055991, 0.37118122253608427], [0.36728638785111906, 0.37102733292325274], [0.36728654731804, 0.3710180014615618], [0.3675080059958209, 0.37100756665355966], [0.3726589973490611, 0.3670186794022683], [0.4261464772021043, 0.368244607916938], [0.4870955450521608, 0.36537277725626394], [0.5054255657304655, 0.36450909357328704], [0.5760717028873578, 0.3700216338677787], [0.6061794062038407, 0.37237094742384935], [0.6326464260499594, 0.37297756928034426], [0.6499838937100225, 0.3733749425728424], [0.6823100929989678, 0.3741158563266423], [0.6953374452580803, 0.3744144421386673], [0.7000976445891839, 0.374523545504755], [0.7113467402446069, 0.3747813738258148], [0.7271505860632977, 0.37514359663541075], [0.7075759958272855, 0.035201392793293804], [0.7077219386012155, 0.03154583020558151], [0.7083564858777259, 0.015651742258062075], [0.7155428240557848, -0.16435106486263995], [0.7155987355144058, -0.1657515304756683], [0.7176076900584084, -0.2160716585211921], [0.7194396009455128, -0.26195721162256924], [0.716415730659095, -0.3679727161650675], [0.723429946920885, -0.4852772505054747], [0.7382508055098197, -0.7331387150529539], [0.7479453800632476, -0.9759676204314758], [0.09847637212467271, -0.9463029899834261], [0.018201124632768014, -0.9426364015521607], [-0.5033472417746165, -0.9188145727025193], [-0.5031923353490481, -0.9122734841835737], [-0.5030617903709845, -0.9067610836870547], [-0.5023330634758147, -0.8759898157428759], [-0.5166869641232481, -0.8759415126887647], [-0.5196083305593154, -0.8759316818473436], [-0.5229166181041328, -0.847137575091758], [-0.525287717445309, -0.8265004065769236], [-0.5365857904580216, -0.7281661729127209], [-0.5347128289606019, -0.6996936948094844], [-0.5319625220016234, -0.6578839433679436], [-0.519712387840373, -0.4716592520710719], [-0.5291738697551363, -0.44568366749181], [-0.541165407668466, -0.4127620585822065], [-0.5451274359607102, -0.4018846926539333], [-0.5459100040663217, -0.39973622751924576], [-0.6316872788200458, -0.40312653206029875], [-0.665874172906818, -0.4044777522127186], [-0.6762449639892983, -0.4037657833282282], [-0.6910405831196456, -0.40275004399226066], [-0.7475718636954969, -0.40478908179854756], [-1.1037894559540633, -0.41763756374484157], [-1.208684857559704, -0.42142105648374323], [-1.2086858123263235, -0.42572933573408567], [-1.2086858572650332, -0.42593211671310616], [-1.214076563403711, -0.42614518171842275], [-1.2219730496978678, -0.4264572864503381], [-1.3057565245276133, -0.42976878703130234], [-2.0529299950918376, -0.45930045048740037], [-2.5669027152549067, -0.47961496913058643], [-2.5733105141317676, -0.4798682342254819], [-2.79440778714903, -0.48860699505551536], [-2.835832821567359, -0.490244299139901], [-2.8353681171412566, -0.480094212855822], [-2.895770214406322, -0.4822728679056971], [-2.8874471918383007, -0.435489016311084]]]}}, {"type": "Feature", "properties": {"kind": "six_person_tile"}, "geometry": {"type": "Polygon", "coordinates": [[[-0.5365857904580216, -0.7281661729127209], [-0.519712387840373, -0.4716592520710719], [-0.5459100040663217, -0.39973622751924576], [-0.665874172906818, -0.4044777522127186], [-0.6910405831196456, -0.40275004399226066], [-1.208684857559704, -0.42142105648374323], [-1.2086858572650332, -0.42593211671310616], [-2.835832821567359, -0.490244299139901], [-2.8353681171412566, -0.480094212855822], [-2.895770214406322, -0.4822728679056971], [-2.81457147266252, -0.025853357762005664], [-2.7789955151307106, 0.751197641333226], [-0.47082080544893107, 0.43689541062480813], [-0.36518385321532837, 0.4352186642960376], [-0.34091274947682043, 0.7329434837239294], [-0.33080224413907783, 0.7323825823883154], [-0.33086558193172083, 0.7430262334627546], [-0.23205682012635911, 0.7394946927432884], [-0.1276577278298299, 0.7544600222068022], [-0.10234580688678471, 0.7348586694124715], [0.3782098088920685, 0.7176830496184066], [0.36345923258995705, 0.5949794384413336], [0.36568734574412687, 0.46459783692319895], [0.3583118714994652, 0.3781289809868606], [0.3672837580055991, 0.37118122253608427], [0.36728654731804, 0.3710180014615618], [0.3675080059958209, 0.37100756665355966], [0.3726589973490611, 0.3670186794022683], [0.4261464772021043, 0.368244607916938], [0.5054255657304655, 0.36450909357328704], [0.6061794062038407, 0.37237094742384935], [0.7271505860632977, 0.37514359663541075], [0.7075759958272855, 0.035201392793293804], [0.7194396009455128, -0.26195721162256924], [0.716415730659095, -0.3679727161650675], [0.7382508055098197, -0.7331387150529539], [0.7479453800632476, -0.9759676204314758], [-0.5033472417746165, -0.9188145727025193], [-0.5023330634758147, -0.8759898157428759], [-0.5196083305593154, -0.8759316818473436], [-0.5365857904580216, -0.7281661729127209]]]}}, {"type": "Feature", "properties": {"kind": "direct_forward"}, "geometry": {"type": "Polygon", "coordinates": [[[0.4261464772021043, 0.368244607916938], [0.5054255657304655, 0.36450909357328704], [0.5054255657304656, 0.36450909357328704], [0.5054255657304657, 0.36450909357328704], [0.6061794062038407, 0.37237094742384935], [0.7271505860632977, 0.37514359663541075], [0.7075759958272856, 0.03520139279329347], [0.7194396009455128, -0.26195721162256946], [0.716415730659095, -0.3679727161650677], [0.716415730659095, -0.3679727161650679], [0.7382508055098197, -0.7331387150529539], [0.7479453800632476, -0.9759676204314758], [-0.5033472417746165, -0.9188145727025193], [-0.5023330634758147, -0.8759898157428759], [-0.5196083305593154, -0.8759316818473436], [-0.5365857904580216, -0.7281661729127209], [-0.519712387840373, -0.471659252071072], [-0.519712387840373, -0.4716592520710719], [-0.519712387840373, -0.4716592520710718], [-0.5459100040663217, -0.39973622751924576], [-0.665874172906818, -0.4044777522127186], [-0.6910405831196456, -0.40275004399226066], [-0.6910405831196457, -0.40275004399226066], [-1.208684857559704, -0.42142105648374323], [-1.2086858572650332, -0.42593211671310616], [-2.835832821567359, -0.490244299139901], [-2.835368117141257, -0.480094212855822], [-2.895770214406322, -0.4822728679056971], [-2.8145714726625206, -0.025853357762007204], [-2.7789955151307106, 0.751197641333226], [-0.47082080544893107, 0.43689541062480813], [-0.470820805448931, 0.43689541062480813], [-0.36518385321532837, 0.4352186642960376], [-0.34091274947682043, 0.7329434837239294], [-0.33080224413907783, 0.7323825823883154], [-0.33086558193172083, 0.7430262334627546], [-0.2320568201263593, 0.7394946927432884], [-0.12765772782982987, 0.7544600222068022], [-0.10234580688678464, 0.7348586694124715], [0.3782098088920685, 0.7176830496184066], [0.34211730878383234, 0.41744528202314757], [0.34211730878383234, 0.41744528202314746], [0.3444402525548206, 0.3888710537585919], [0.3583118714994652, 0.3781289809868606], [0.3672837580055991, 0.37118122253608427], [0.36728654731804, 0.3710180014615618], [0.3675080059958209, 0.37100756665355966], [0.3726589973490611, 0.3670186794022683], [0.4261464772021043, 0.368244607916938]]]}}, {"type": "Feature", "properties": {"kind": "direct_reverse"}, "geometry": {"type": "Polygon", "coordinates": [[[0.36568734574412687, 0.46459783692319895], [0.3583118714994652, 0.3781289809868606], [0.3672837580055991, 0.37118122253608427], [0.36728654731804, 0.3710180014615618], [0.3675080059958209, 0.37100756665355966], [0.3726589973490611, 0.3670186794022683], [0.4261464772021043, 0.368244607916938], [0.5054255657304655, 0.36450909357328704], [0.5054255657304657, 0.36450909357328704], [0.6061794062038409, 0.37237094742384935], [0.7271505860632976, 0.37514359663541075], [0.7075759958272855, 0.03520139279329411], [0.7194396009455128, -0.26195721162256924], [0.716415730659095, -0.3679727161650677], [0.716415730659095, -0.3679727161650678], [0.716415730659095, -0.367972716165068], [0.7382508055098197, -0.7331387150529539], [0.7479453800632476, -0.9759676204314758], [-0.5033472417746165, -0.9188145727025193], [-0.5023330634758147, -0.8759898157428759], [-0.5196083305593154, -0.8759316818473436], [-0.5365857904580216, -0.7281661729127209], [-0.519712387840373, -0.471659252071072], [-0.519712387840373, -0.4716592520710719], [-0.519712387840373, -0.4716592520710718], [-0.5459100040663217, -0.39973622751924576], [-0.665874172906818, -0.4044777522127186], [-0.6910405831196456, -0.40275004399226066], [-1.208684857559704, -0.42142105648374323], [-1.2086858572650332, -0.42593211671310616], [-2.835832821567359, -0.490244299139901], [-2.8353681171412566, -0.480094212855822], [-2.895770214406322, -0.4822728679056971], [-2.81457147266252, -0.025853357762005664], [-2.7789955151307106, 0.7511976413332261], [-0.47082080544893107, 0.43689541062480813], [-0.36518385321532837, 0.4352186642960376], [-0.34091274947682043, 0.7329434837239294], [-0.33080224413907783, 0.7323825823883154], [-0.33086558193172083, 0.7430262334627546], [-0.2320568201263592, 0.7394946927432884], [-0.23205682012635911, 0.7394946927432884], [-0.23205682012635906, 0.7394946927432884], [-0.12765772782982987, 0.7544600222068021], [-0.10234580688678477, 0.7348586694124715], [0.3782098088920685, 0.7176830496184066], [0.36345923258995705, 0.5949794384413336], [0.36568734574412687, 0.46459783692319895]]]}}, {"type": "Feature", "properties": {"kind": "difference"}, "geometry": {"type": "Polygon", "coordinates": [[[0.36491541823540674, 0.5097684085588812], [0.36568734574412687, 0.46459783692319895], [0.3583118714994652, 0.3781289809868606], [0.3444402525548206, 0.3888710537585919], [0.34211730878383234, 0.41744528202314757], [0.36345923258995705, 0.5949794384413336], [0.36491541823540674, 0.5097684085588812]]]}}]}
