{
  "type": "FeatureCollection",
  "coordinate_note": "Common camera-height coordinates, not geographic coordinates",
  "features": [
    {
      "type": "Feature",
      "geometry": {
        "type": "Polygon",
        "coordinates": [
          [
            [
              -1.3414218365956947,
              0.30983018456506306
            ],
            [
              -1.3678515035906984,
              0.31658293517031294
            ],
            [
              -1.5378343530459542,
              0.7038748122497352
            ],
            [
              -1.5469960292618568,
              0.7666779241097043
            ],
            [
              -1.5606889761226732,
              0.797107773985012
            ],
            [
              -1.585502568099205,
              0.8124829015020492
            ],
            [
              -1.6027924783339091,
              0.851876533334865
            ],
            [
              -1.55938011980983,
              0.8515706233974537
            ],
            [
              -1.5597385322099184,
              0.8540275334130779
            ],
            [
              -1.4595203564218033,
              0.8732275848129354
            ],
            [
              -1.208010148150954,
              0.8735674682980401
            ],
            [
              -1.0406535656771132,
              0.8947144180671831
            ],
            [
              -0.3325545792162676,
              0.8811272216745105
            ],
            [
              -0.11328251720096143,
              0.887211194791691
            ],
            [
              -0.1169420271744852,
              0.8769899892460906
            ],
            [
              -0.022096969676822693,
              0.8751700764263647
            ],
            [
              0.24536252829706048,
              0.8755315133116534
            ],
            [
              0.24592058899879565,
              0.8700272824441116
            ],
            [
              0.2545712574196772,
              0.8698612910601247
            ],
            [
              0.3216271640140346,
              0.24843360350833477
            ],
            [
              0.3385409518228831,
              0.052659022857357456
            ],
            [
              0.3287694876788988,
              0.052876990300336796
            ],
            [
              0.39471826966883805,
              -0.5975850837664022
            ],
            [
              0.4238624757133406,
              -0.9349249381651448
            ],
            [
              0.42586688508792786,
              -0.9613384821256921
            ],
            [
              0.4280748237708218,
              -0.9836822410135289
            ],
            [
              0.46013676610924076,
              -1.3547944594650354
            ],
            [
              0.5084618369315974,
              -1.84814442002537
            ],
            [
              0.5027678331519945,
              -1.848242725892533
            ],
            [
              0.5082460844416399,
              -1.9116526705514056
            ],
            [
              0.05765349188406383,
              -1.9031728142925508
            ],
            [
              -0.24068170263178662,
              -1.9575824100714838
            ],
            [
              -0.2936469459831659,
              -1.9604465704303267
            ],
            [
              -0.43193903601791184,
              -1.672446145748286
            ],
            [
              -0.7629733032341067,
              -0.9454897633043092
            ],
            [
              -0.8489219780844434,
              -0.7846527569406376
            ],
            [
              -1.3414218365956947,
              0.30983018456506306
            ]
          ]
        ]
      },
      "properties": {
        "method": "mv50"
      }
    },
    {
      "type": "Feature",
      "geometry": {
        "type": "Polygon",
        "coordinates": [
          [
            [
              -1.3414218365956947,
              0.30983018456506306
            ],
            [
              -1.5469960292618568,
              0.7666779241097043
            ],
            [
              -1.5490476378750504,
              0.7807416611585669
            ],
            [
              -1.5548538434376495,
              0.7934921785808511
            ],
            [
              -1.5606889761226732,
              0.797107773985012
            ],
            [
              -1.5828855534542285,
              0.8464352505910675
            ],
            [
              -1.5587287521463087,
              0.8471055107619423
            ],
            [
              -1.55938011980983,
              0.8515706233974537
            ],
            [
              -1.430526434157551,
              0.8506626417937534
            ],
            [
              -1.3776727578987613,
              0.8521291320640925
            ],
            [
              -1.208010148150954,
              0.8735674682980401
            ],
            [
              -0.5741428500746022,
              0.8744240578887581
            ],
            [
              -0.3325545792162676,
              0.8811272216745105
            ],
            [
              -0.1169420271744852,
              0.8769899892460906
            ],
            [
              -0.11763983942293539,
              0.87504096260721
            ],
            [
              -0.022096969676822693,
              0.8751700764263647
            ],
            [
              0.24592058899879565,
              0.8700272824441116
            ],
            [
              0.3287694876788988,
              0.052876990300336796
            ],
            [
              0.3256384591867674,
              0.0529468326764914
            ],
            [
              0.42586688508792786,
              -0.9613384821256921
            ],
            [
              0.44055168254696536,
              -1.1548506199921842
            ],
            [
              0.46013676610924076,
              -1.3547944594650354
            ],
            [
              0.5027678331519945,
              -1.848242725892533
            ],
            [
              0.34379324581380255,
              -1.8509873912053887
            ],
            [
              0.05765349188406383,
              -1.9031728142925508
            ],
            [
              -0.25434073718641875,
              -1.8973012880850446
            ],
            [
              -0.7629733032341067,
              -0.9454897633043092
            ],
            [
              -1.3337115194976341,
              0.30786020709767997
            ],
            [
              -1.3414218365956947,
              0.30983018456506306
            ]
          ]
        ]
      },
      "properties": {
        "method": "mv_strict"
      }
    }
  ]
}
