{
  "type": "FeatureCollection",
  "features": [
    {
      "type": "Feature",
      "properties": {
        "image": "rPc6DW4iMge-06",
        "object": "R01557",
        "worker": "P023",
        "role": "observed_boundary_window"
      },
      "geometry": {
        "type": "LineString",
        "coordinates": [
          [
            -1.95,
            0.46219326067460836
          ],
          [
            -2.1685297429694455,
            0.4705609796893808
          ],
          [
            -2.109974143148038,
            0.765990604306149
          ],
          [
            -2.792872596745618,
            0.7177515643581621
          ],
          [
            -2.803820321804918,
            0.3
          ]
        ]
      }
    },
    {
      "type": "Feature",
      "properties": {
        "image": "rPc6DW4iMge-06",
        "object": "R01905",
        "worker": "P018",
        "role": "observed_boundary_window"
      },
      "geometry": {
        "type": "LineString",
        "coordinates": [
          [
            -1.95,
            0.8699708861600246
          ],
          [
            -2.733158904099,
            0.9458934409548083
          ],
          [
            -2.9875940695178813,
            0.6457984161118543
          ],
          [
            -3.0573446771973196,
            0.3
          ]
        ]
      }
    },
    {
      "type": "Feature",
      "properties": {
        "image": "rPc6DW4iMge-06",
        "object": "R02452",
        "worker": "P003",
        "role": "observed_boundary_window"
      },
      "geometry": {
        "type": "LineString",
        "coordinates": [
          [
            -1.95,
            0.5282192674848533
          ],
          [
            -2.7142310909469254,
            0.5849615469873237
          ],
          [
            -2.702352483025063,
            0.3
          ]
        ]
      }
    },
    {
      "type": "Feature",
      "properties": {
        "image": "rPc6DW4iMge-06",
        "object": "mv50",
        "role": "actual_full_consensus_boundary_window"
      },
      "geometry": {
        "type": "LineString",
        "coordinates": [
          [
            -2.736817017253199,
            0.3
          ],
          [
            -2.7307549161716036,
            0.44528093365619137
          ],
          [
            -2.7258788601206816,
            0.47268932775688954
          ],
          [
            -2.709540218545165,
            0.4724299889866999
          ],
          [
            -2.7142310909469254,
            0.5849615469873237
          ],
          [
            -2.7106884615402698,
            0.5846985154640746
          ],
          [
            -2.7112253807228366,
            0.5987381409606796
          ],
          [
            -2.583618064886461,
            0.5885098593339992
          ],
          [
            -2.583875132862785,
            0.6151549664983309
          ],
          [
            -2.2366067246508337,
            0.6323934036521766
          ],
          [
            -2.3387498507756725,
            0.6912497553321812
          ],
          [
            -2.1304110834380725,
            0.6628804386411248
          ],
          [
            -2.1354585756493214,
            0.6374144074882818
          ],
          [
            -1.994704862195509,
            0.644401435349633
          ],
          [
            -1.95,
            0.6383140114416317
          ]
        ]
      }
    },
    {
      "type": "Feature",
      "properties": {
        "image": "rPc6DW4iMge-06",
        "object": "mv_strict",
        "role": "actual_full_consensus_boundary_window"
      },
      "geometry": {
        "type": "MultiLineString",
        "coordinates": [
          [
            [
              -2.702352483025063,
              0.3
            ],
            [
              -2.709540218545165,
              0.4724299889866999
            ],
            [
              -2.7142310909469254,
              0.5849615469873237
            ],
            [
              -2.7106884615402698,
              0.5846985154640746
            ],
            [
              -2.583490177785464,
              0.5752543556352631
            ],
            [
              -2.583618064886461,
              0.5885098593339992
            ],
            [
              -2.477342885433971,
              0.579991441261795
            ],
            [
              -2.4765706518789035,
              0.589127943942804
            ],
            [
              -2.1915783994784874,
              0.6064474291901637
            ],
            [
              -2.2366067246508337,
              0.6323934036521766
            ],
            [
              -2.1354585756493214,
              0.6374144074882818
            ],
            [
              -2.140986995743962,
              0.6095219586317299
            ],
            [
              -1.95,
              0.6211285775042235
            ]
          ],
          [
            [
              -2.1238917856798967,
              0.5674454199811494
            ],
            [
              -2.1467196364353405,
              0.5805991588878573
            ],
            [
              -2.14962887359638,
              0.5659212314987035
            ],
            [
              -2.1238917856798967,
              0.5674454199811494
            ]
          ]
        ]
      }
    },
    {
      "type": "Feature",
      "properties": {
        "image": "yqstnuAEVhm-32",
        "object": "R02256",
        "worker": "P023",
        "role": "observed_boundary_window"
      },
      "geometry": {
        "type": "LineString",
        "coordinates": [
          [
            2.1,
            1.6574745098114825
          ],
          [
            1.7797772956094826,
            1.6563511386829277
          ],
          [
            1.68187268833599,
            2.4147756149512554
          ],
          [
            0.8672765425987561,
            2.426943389070923
          ],
          [
            0.8063595290324452,
            1.789556381431865
          ],
          [
            0.2608255949792835,
            1.8039466808836866
          ],
          [
            0.25408584551100877,
            1.2745468036692638
          ],
          [
            0.15,
            1.2753960319154618
          ]
        ]
      }
    },
    {
      "type": "Feature",
      "properties": {
        "image": "yqstnuAEVhm-32",
        "object": "R01095",
        "worker": "P010",
        "role": "observed_boundary_window"
      },
      "geometry": {
        "type": "LineString",
        "coordinates": [
          [
            2.1,
            1.6064528085232577
          ],
          [
            1.7324272249532697,
            1.58801407740528
          ],
          [
            1.946879997385206,
            2.783091518388638
          ],
          [
            1.1921910993635465,
            3.2524528366632897
          ],
          [
            0.8633341435455028,
            1.8785651038124
          ],
          [
            0.24335741145956954,
            1.945226308296988
          ],
          [
            0.27218286596659064,
            1.2820554366363563
          ],
          [
            0.15,
            1.281527380991811
          ]
        ]
      }
    },
    {
      "type": "Feature",
      "properties": {
        "image": "yqstnuAEVhm-32",
        "object": "R00157",
        "worker": "P002",
        "role": "observed_boundary_window"
      },
      "geometry": {
        "type": "LineString",
        "coordinates": [
          [
            2.1,
            1.6351651631887463
          ],
          [
            1.7846295563383456,
            1.6558942387140427
          ],
          [
            1.629200453365162,
            2.1984178472697185
          ],
          [
            0.24410239420939958,
            2.3681301626255813
          ],
          [
            0.2676475281690078,
            1.289098259212932
          ],
          [
            0.15,
            1.2868557849155928
          ]
        ]
      }
    },
    {
      "type": "Feature",
      "properties": {
        "image": "yqstnuAEVhm-32",
        "object": "mv50",
        "role": "actual_full_consensus_boundary_window"
      },
      "geometry": {
        "type": "LineString",
        "coordinates": [
          [
            0.15,
            1.2917620641186343
          ],
          [
            0.2250739128686956,
            1.288286765426861
          ],
          [
            0.2510286945096258,
            1.2887814883643394
          ],
          [
            0.25355614214606903,
            1.2970378731217154
          ],
          [
            0.25335994195998107,
            1.3502531668468214
          ],
          [
            0.2539240211787536,
            1.350271030278385
          ],
          [
            0.25505033895961815,
            1.3503066988510388
          ],
          [
            0.2597642714231703,
            1.350455981092177
          ],
          [
            0.26060010520643945,
            1.3669594468813449
          ],
          [
            0.26240855764848814,
            1.4026671840009843
          ],
          [
            0.2640228020904156,
            1.4345403009483606
          ],
          [
            0.2643380645601321,
            1.4407651311570944
          ],
          [
            0.2648473163401249,
            1.4508202635260128
          ],
          [
            0.2633840995896036,
            1.4844836608415803
          ],
          [
            0.26298864454816623,
            1.5026066669288807
          ],
          [
            0.2674816039915214,
            1.5028340454571625
          ],
          [
            0.2696150632175034,
            1.5449590134273101
          ],
          [
            0.2824610776258544,
            1.798602457326149
          ],
          [
            0.2827025142841921,
            1.8033696032717734
          ],
          [
            0.28717710512179795,
            1.8917200125123816
          ],
          [
            0.31726943749957265,
            1.9049807021873082
          ],
          [
            0.32078182295694413,
            1.9369014724445839
          ],
          [
            0.3761878744115211,
            1.9309440970552358
          ],
          [
            0.38434841276546505,
            1.9300666587776953
          ],
          [
            0.38523377719279606,
            1.9349303254441206
          ],
          [
            0.45874438750228225,
            1.9673240056311876
          ],
          [
            0.4693988067875435,
            2.0021286772362994
          ],
          [
            0.6626552323785159,
            2.1291795124150683
          ],
          [
            0.7069227704290703,
            2.0766879618278127
          ],
          [
            0.8393801219572087,
            2.1350575096490574
          ],
          [
            0.8506290638704926,
            2.252757459227329
          ],
          [
            0.9032692610052222,
            2.287364230978854
          ],
          [
            0.9086627475557882,
            2.2867033816734303
          ],
          [
            0.9100736489023473,
            2.2918375785664775
          ],
          [
            0.9720010032388157,
            2.332549922618169
          ],
          [
            0.9756755410367212,
            2.3479012853159147
          ],
          [
            0.9872309366139816,
            2.396177035458848
          ],
          [
            1.0389350328957576,
            2.3963381956010394
          ],
          [
            1.0577018204052393,
            2.424098971282858
          ],
          [
            1.0648718237978247,
            2.4239918716087745
          ],
          [
            1.0735619363073858,
            2.447560052175082
          ],
          [
            1.216699255411791,
            2.659295971567074
          ],
          [
            1.6883175106626664,
            2.6562562711886692
          ],
          [
            1.7287021060650047,
            2.6330024012746756
          ],
          [
            1.7467897869412863,
            2.53860806912227
          ],
          [
            1.7502627602793694,
            2.5364531823217975
          ],
          [
            1.7825721172237396,
            2.5506908409604536
          ],
          [
            1.783674823328864,
            2.515721893413701
          ],
          [
            1.7892384255273235,
            2.5122698274824495
          ],
          [
            1.7852090167873373,
            2.467069645705444
          ],
          [
            1.782327474121975,
            2.434745734015856
          ],
          [
            1.7862908145032785,
            2.4327637436984175
          ],
          [
            1.7900766881326602,
            2.3127063542006594
          ],
          [
            1.8062808263257066,
            2.2281416820738063
          ],
          [
            1.7956491841747282,
            2.135991705670099
          ],
          [
            1.7701150454661472,
            1.9146740346959918
          ],
          [
            1.7589372292094652,
            1.8177900830288065
          ],
          [
            1.7529973545914679,
            1.7663060979476264
          ],
          [
            1.7600215169467326,
            1.7417883349601069
          ],
          [
            1.754388019032565,
            1.710394633705042
          ],
          [
            1.7447217698085578,
            1.6565276854929347
          ],
          [
            1.760073229508674,
            1.6576887824938216
          ],
          [
            1.7593793151664754,
            1.6497889014250755
          ],
          [
            1.7634164200348024,
            1.6507650460378853
          ],
          [
            1.7662231334768879,
            1.632227636677141
          ],
          [
            2.1,
            1.63288851482206
          ]
        ]
      }
    },
    {
      "type": "Feature",
      "properties": {
        "image": "yqstnuAEVhm-32",
        "object": "mv_strict",
        "role": "actual_full_consensus_boundary_window"
      },
      "geometry": {
        "type": "LineString",
        "coordinates": [
          [
            0.15,
            1.2875630534348017
          ],
          [
            0.16432803104170024,
            1.2871288908774652
          ],
          [
            0.2250739128686956,
            1.288286765426861
          ],
          [
            0.2510286945096258,
            1.2887814883643394
          ],
          [
            0.2535864029769235,
            1.288830240731578
          ],
          [
            0.25355614214606903,
            1.2970378731217154
          ],
          [
            0.25440758748025655,
            1.2998192800152
          ],
          [
            0.2546963879627618,
            1.3225042389587645
          ],
          [
            0.2539240211787536,
            1.350271030278385
          ],
          [
            0.25505033895961815,
            1.3503066988510388
          ],
          [
            0.2597642714231703,
            1.350455981092177
          ],
          [
            0.26060010520643945,
            1.3669594468813449
          ],
          [
            0.26240855764848814,
            1.4026671840009843
          ],
          [
            0.2640228020904156,
            1.4345403009483606
          ],
          [
            0.2643380645601321,
            1.4407651311570944
          ],
          [
            0.2648473163401249,
            1.4508202635260128
          ],
          [
            0.2674816039915214,
            1.5028340454571625
          ],
          [
            0.2696150632175034,
            1.5449590134273101
          ],
          [
            0.2824610776258544,
            1.798602457326149
          ],
          [
            0.2827025142841921,
            1.8033696032717734
          ],
          [
            0.29287132329532073,
            1.8031013666001308
          ],
          [
            0.30671762638407907,
            1.8090852082263749
          ],
          [
            0.31726943749957265,
            1.9049807021873082
          ],
          [
            0.3761878744115211,
            1.9309440970552358
          ],
          [
            0.38434841276546505,
            1.9300666587776953
          ],
          [
            0.44533190063100003,
            1.9235095856741449
          ],
          [
            0.45874438750228225,
            1.9673240056311876
          ],
          [
            0.7069227704290703,
            2.0766879618278127
          ],
          [
            0.765422678538838,
            2.0073199549061984
          ],
          [
            0.7802972423011998,
            2.01374817139423
          ],
          [
            0.83560550543214,
            2.095562935127942
          ],
          [
            0.8393801219572087,
            2.1350575096490574
          ],
          [
            0.8707938714963926,
            2.1489005039020603
          ],
          [
            0.9086627475557882,
            2.2867033816734303
          ],
          [
            0.9595350642876748,
            2.280470134429298
          ],
          [
            0.9720010032388157,
            2.332549922618169
          ],
          [
            0.9756755410367212,
            2.3479012853159147
          ],
          [
            0.9948335861336317,
            2.347560542405863
          ],
          [
            1.0148613765177712,
            2.360727232658511
          ],
          [
            1.0389350328957576,
            2.3963381956010394
          ],
          [
            1.054693409271328,
            2.3963873139951324
          ],
          [
            1.0648718237978247,
            2.4239918716087745
          ],
          [
            1.4809518114933593,
            2.4177768074539943
          ],
          [
            1.6444423497066185,
            2.489821648140188
          ],
          [
            1.7267705537572078,
            2.551029466335693
          ],
          [
            1.7467897869412863,
            2.53860806912227
          ],
          [
            1.7474409737801362,
            2.535209714895429
          ],
          [
            1.7502627602793694,
            2.5364531823217975
          ],
          [
            1.783674823328864,
            2.515721893413701
          ],
          [
            1.7852090167873373,
            2.467069645705444
          ],
          [
            1.782327474121975,
            2.434745734015856
          ],
          [
            1.7773629389202572,
            2.3790557040297817
          ],
          [
            1.7900766881326602,
            2.3127063542006594
          ],
          [
            1.7956491841747282,
            2.135991705670099
          ],
          [
            1.7701150454661472,
            1.9146740346959918
          ],
          [
            1.7589372292094652,
            1.8177900830288065
          ],
          [
            1.7529973545914679,
            1.7663060979476264
          ],
          [
            1.749937767616461,
            1.739787065088152
          ],
          [
            1.754388019032565,
            1.710394633705042
          ],
          [
            1.7447217698085578,
            1.6565276854929347
          ],
          [
            1.7427928463833224,
            1.645778405617737
          ],
          [
            1.7593793151664754,
            1.6497889014250755
          ],
          [
            1.7567707216210229,
            1.6200913184345298
          ],
          [
            2.1,
            1.627209165740287
          ]
        ]
      }
    }
  ]
}