{
  "type": "FeatureCollection",
  "features": [
    {
      "type": "Feature",
      "properties": {
        "image": "rPc6DW4iMge-06",
        "record": "R01557",
        "processed_pair_indices": [
          2,
          3,
          4
        ],
        "source_pair_indices": [
          4,
          2,
          3
        ],
        "purpose": "diagnostic_path_vs_chord_patch_not_GT_not_candidate_not_vote",
        "area_h2": 0.09946188393937061
      },
      "geometry": {
        "type": "Polygon",
        "coordinates": [
          [
            [
              -2.1685297429694455,
              0.4705609796893808
            ],
            [
              -2.109974143148038,
              0.765990604306149
            ],
            [
              -2.792872596745618,
              0.7177515643581621
            ],
            [
              -2.1685297429694455,
              0.4705609796893808
            ]
          ]
        ]
      }
    },
    {
      "type": "Feature",
      "properties": {
        "image": "yqstnuAEVhm-32",
        "record": "R02256",
        "processed_pair_indices": [
          10,
          11,
          12
        ],
        "source_pair_indices": [
          11,
          10,
          13
        ],
        "purpose": "diagnostic_path_vs_chord_patch_not_GT_not_candidate_not_vote",
        "area_h2": 0.174296427929319
      },
      "geometry": {
        "type": "Polygon",
        "coordinates": [
          [
            [
              0.8672765425987561,
              2.426943389070923
            ],
            [
              0.8063595290324452,
              1.789556381431865
            ],
            [
              0.2608255949792835,
              1.8039466808836866
            ],
            [
              0.8672765425987561,
              2.426943389070923
            ]
          ]
        ]
      }
    }
  ]
}